{"type": "FeatureCollection", "name": "thu_dau_mot_merged", "features": [{"type": "Feature", "properties": {"ma_xa": "25747", "ten_xa": "Thủ Dầu Một", "sap_nhap": "Phú Cường, Phú Thọ, Chánh Nghĩa, Hiệp Thành (thành phố Thủ Dầu Một, 1 phần), Chánh Mỹ (1 phần)", "tru_so": "1 đường Quang Trung, khu phố 6, phường Phú Cường, TP Thủ Dầu Một, tỉnh Bình Dương cũ", "loai": "Phường", "cap": "2", "stt": "38", "dtich_km2": 20.62, "dan_so": "88132", "matdo_km2": 5620.66, "ma_tinh": "79", "ten_tinh": "TP. Hồ Chí Minh", "ghi_chu": "Đã hợp nhất toàn bộ ranh giới phường Chánh Mỹ (cũ, mã xã 25774, huyện Thủ Dầu Một, tỉnh Bình Dương - theo dữ liệu 63 tỉnh/thành trước sáp nhập) vào ranh giới phường Thủ Dầu Một mới."}, "geometry": {"type": "MultiPolygon", "coordinates": [[[[106.64877200000006, 10.997292000000073], [106.64915000000008, 10.997049000000061], [106.64991800000007, 10.996537000000046], [106.65088900000006, 10.995928000000049], [106.65469300000007, 10.993597000000022], [106.65548000000007, 10.99313600000005], [106.65589300000005, 10.992915000000039], [106.65594400000003, 10.99288800000005], [106.65616500000004, 10.992770000000064], [106.65656400000006, 10.992657000000065], [106.65699900000004, 10.992595000000051], [106.65730200000007, 10.992567000000065], [106.65768000000008, 10.99253200000004], [106.65814000000006, 10.992493000000024], [106.65870500000005, 10.992460000000051], [106.65950700000008, 10.992387000000065], [106.65956300000005, 10.992383000000075], [106.66001900000003, 10.992350000000044], [106.66018100000008, 10.992338000000075], [106.66094000000004, 10.992242000000033], [106.66132100000004, 10.992147000000045], [106.66188600000004, 10.991923000000043], [106.66221500000006, 10.99173200000007], [106.66252800000007, 10.991542000000038], [106.66267200000004, 10.991435000000024], [106.66270900000006, 10.991407000000038], [106.66295900000006, 10.991151000000059], [106.66319300000004, 10.990845000000036], [106.66344200000009, 10.990452000000062], [106.66364300000004, 10.990068000000065], [106.66392700000006, 10.989451000000031], [106.66399000000007, 10.989326000000062], [106.66453400000006, 10.98825400000004], [106.66483400000004, 10.987664000000052], [106.66498600000006, 10.98736400000007], [106.66517000000005, 10.987023000000022], [106.66546800000003, 10.986470000000054], [106.66548600000004, 10.986429000000044], [106.66558000000003, 10.986201000000051], [106.66573700000004, 10.985823000000039], [106.66592500000007, 10.985290000000077], [106.66601400000008, 10.984993000000031], [106.66614200000004, 10.984443000000056], [106.66614600000008, 10.984428000000037], [106.66616900000008, 10.984327000000064], [106.66621300000008, 10.984137000000032], [106.66622700000005, 10.98407700000007], [106.66625900000008, 10.983936000000028], [106.66638000000006, 10.983278000000041], [106.66647400000005, 10.982835000000023], [106.66652200000004, 10.982667000000049], [106.66652400000004, 10.982658000000072], [106.66657400000008, 10.982488000000046], [106.66683600000005, 10.981595000000027], [106.66708500000004, 10.980909000000054], [106.66760700000003, 10.97978500000005], [106.66795400000007, 10.979069000000038], [106.66814500000004, 10.978682000000049], [106.66843300000005, 10.978101000000038], [106.66930400000007, 10.976341000000048], [106.66971100000006, 10.975520000000074], [106.66976600000004, 10.975407000000075], [106.66990000000004, 10.975138000000072], [106.67026500000009, 10.97434000000004], [106.67050500000005, 10.973848000000032], [106.67062600000008, 10.973637000000053], [106.67075200000005, 10.973442000000034], [106.67098700000008, 10.973149000000035], [106.67111900000003, 10.97301200000004], [106.67117400000006, 10.972965000000045], [106.67139500000008, 10.972759000000053], [106.67150600000008, 10.972659000000021], [106.67151800000005, 10.972651000000042], [106.67158800000004, 10.972609000000034], [106.67182400000007, 10.972468000000049], [106.67239000000006, 10.972144000000071], [106.67321300000003, 10.971724000000052], [106.67450800000006, 10.97109000000006], [106.67530400000004, 10.970708000000059], [106.67646400000007, 10.970078000000058], [106.67734100000007, 10.969575000000077], [106.67788300000007, 10.969267000000059], [106.67821900000007, 10.96907600000003], [106.67935000000006, 10.968433000000061], [106.68064400000009, 10.967715000000055], [106.68178500000005, 10.967095000000029], [106.68285600000007, 10.966596000000038], [106.68323600000008, 10.966416000000038], [106.68393600000007, 10.966085000000021], [106.68534000000005, 10.965424000000041], [106.68555300000008, 10.965321000000074], [106.68708800000007, 10.964574000000027], [106.68900400000007, 10.963715000000036], [106.68917800000008, 10.96363100000002], [106.68925500000006, 10.96358900000007], [106.68926000000005, 10.96358600000002], [106.68926800000008, 10.96358200000003], [106.68919600000004, 10.96346600000004], [106.68919500000004, 10.963465000000042], [106.68914100000006, 10.963379000000032], [106.68903300000005, 10.963178000000028], [106.68886900000007, 10.963049000000069], [106.68879500000008, 10.962999000000025], [106.68871900000005, 10.96294800000004], [106.68868000000003, 10.962922000000049], [106.68864200000007, 10.962896000000057], [106.68855800000006, 10.96283900000003], [106.68855000000008, 10.962834000000043], [106.68847700000003, 10.962787000000048], [106.68840400000005, 10.962739000000056], [106.68834600000008, 10.962703000000033], [106.68833500000005, 10.96269600000005], [106.68832500000008, 10.962689000000069], [106.68826900000005, 10.962654000000043], [106.68826600000006, 10.962652000000048], [106.68820200000005, 10.96261000000004], [106.68813500000005, 10.962564000000043], [106.68806000000006, 10.962505000000021], [106.68797400000005, 10.96243400000003], [106.68787900000007, 10.96235500000006], [106.68775500000004, 10.962251000000037], [106.68759600000004, 10.962117000000035], [106.68742300000008, 10.96197200000006], [106.68725200000006, 10.961828000000025], [106.68710100000004, 10.96170200000006], [106.68697900000006, 10.961603000000025], [106.68687400000005, 10.96151800000007], [106.68677600000007, 10.961438000000044], [106.68669600000004, 10.961375000000032], [106.68664300000006, 10.961333000000025], [106.68659500000007, 10.961296000000061], [106.68653200000006, 10.961246000000074], [106.68645900000007, 10.961186000000055], [106.68638700000008, 10.961126000000036], [106.68632500000007, 10.961072000000058], [106.68628200000006, 10.961029000000053], [106.68625100000008, 10.960995000000025], [106.68622200000004, 10.96096300000005], [106.68619900000004, 10.960935000000063], [106.68617700000004, 10.960904000000028], [106.68615200000005, 10.960868000000062], [106.68612600000006, 10.960827000000052], [106.68609500000008, 10.960771000000022], [106.68605900000006, 10.960701000000029], [106.68602600000008, 10.960634000000027], [106.68601600000005, 10.960614000000021], [106.68599300000005, 10.960567000000026], [106.68596000000008, 10.960497000000032], [106.68593000000004, 10.960433000000023], [106.68590100000006, 10.96037700000005], [106.68587400000007, 10.960324000000071], [106.68584600000008, 10.960277000000076], [106.68581700000004, 10.960239000000058], [106.68578700000006, 10.960206000000028], [106.68575700000008, 10.960174000000052], [106.68572600000005, 10.960145000000068], [106.68569200000007, 10.96011500000003], [106.68563800000004, 10.960074000000077], [106.68559200000004, 10.960041000000047], [106.68555700000007, 10.960015000000055], [106.68546800000007, 10.959952000000044], [106.68537300000008, 10.95988600000004], [106.68525200000005, 10.959801000000027], [106.68515600000006, 10.959735000000023], [106.68508700000007, 10.95968700000003], [106.68489200000005, 10.95955200000003], [106.68471100000005, 10.959427000000062], [106.68455700000004, 10.959318000000053], [106.68452700000006, 10.95929700000005], [106.68452200000007, 10.95929300000006], [106.68432600000006, 10.959153000000072], [106.68414600000006, 10.959024000000056], [106.68402300000008, 10.958936000000051], [106.68397300000004, 10.958900000000028], [106.68388900000008, 10.958840000000066], [106.68378600000005, 10.958766000000026], [106.68361600000009, 10.958646000000044], [106.68361500000009, 10.958645000000047], [106.68344400000007, 10.958525000000066], [106.68325200000004, 10.958390000000065], [106.68323100000003, 10.958376000000044], [106.68311800000004, 10.958297000000073], [106.68307600000009, 10.958267000000035], [106.68290500000006, 10.958149000000049], [106.68275200000005, 10.958042000000034], [106.68272600000006, 10.958024000000023], [106.68257500000004, 10.957918000000063], [106.68255100000005, 10.957900000000052], [106.68245600000006, 10.957832000000053], [106.68240100000008, 10.957791000000043], [106.68232700000004, 10.957738000000063], [106.68218100000007, 10.957633000000044], [106.68208900000008, 10.957565000000045], [106.68208300000003, 10.957561000000055], [106.68204800000007, 10.957535000000064], [106.68204700000007, 10.957535000000064], [106.68196800000004, 10.957475000000045], [106.68192300000004, 10.957441000000074], [106.68186800000007, 10.957400000000064], [106.68181400000009, 10.957358000000056], [106.68180900000004, 10.957354000000066], [106.68178200000006, 10.95733400000006], [106.68174200000004, 10.957304000000022], [106.68173600000006, 10.957318000000043], [106.68167800000003, 10.957438000000025], [106.68163500000009, 10.95752600000003], [106.68139000000008, 10.95803200000006], [106.68134300000008, 10.958147000000054], [106.68104100000005, 10.958890000000054], [106.68086500000004, 10.959321000000045], [106.68080100000009, 10.959484000000032], [106.68046100000004, 10.960343000000023], [106.68040600000006, 10.960480000000075], [106.68020300000006, 10.960992000000033], [106.68013400000007, 10.961168000000043], [106.68001700000008, 10.96146200000004], [106.67993400000006, 10.961441000000036], [106.67993300000006, 10.961441000000036], [106.67990800000007, 10.961434000000054], [106.67988500000007, 10.961426000000074], [106.67984100000007, 10.96141700000004], [106.67961700000006, 10.961335000000076], [106.67912800000005, 10.961103000000037], [106.67900900000006, 10.961041000000023], [106.67896100000007, 10.961017000000027], [106.67891400000008, 10.960992000000033], [106.67886600000008, 10.960965000000044], [106.67874700000004, 10.960915000000057], [106.67854800000003, 10.960826000000054], [106.67846800000007, 10.960783000000049], [106.67844200000008, 10.960769000000028], [106.67834300000004, 10.960721000000035], [106.67828100000008, 10.960694000000046], [106.67823600000008, 10.96067400000004], [106.67821200000009, 10.960660000000075], [106.67820300000005, 10.960650000000044], [106.67820100000006, 10.96063300000003], [106.67820000000006, 10.960614000000021], [106.67819600000007, 10.960604000000046], [106.67818300000005, 10.960592000000076], [106.67806400000006, 10.960523000000023], [106.67794700000007, 10.96043400000002], [106.67767300000008, 10.960252000000025], [106.67751500000008, 10.960157000000038], [106.67747000000008, 10.96011500000003], [106.67743000000007, 10.960034000000064], [106.67741000000007, 10.959992000000057], [106.67739000000006, 10.959957000000031], [106.67736100000008, 10.959918000000073], [106.67729800000006, 10.959875000000068], [106.67694300000005, 10.959722000000056], [106.67669400000005, 10.959633000000053], [106.67645200000004, 10.959551000000033], [106.67636600000009, 10.95951800000006], [106.67634200000003, 10.959509000000025], [106.67633100000006, 10.959504000000038], [106.67631300000005, 10.95949900000005], [106.67579400000005, 10.959359000000063], [106.67567300000007, 10.959324000000038], [106.67562700000008, 10.95931100000007], [106.67539500000004, 10.95927000000006], [106.67499700000008, 10.959200000000067], [106.67499600000008, 10.959085000000073], [106.67498800000004, 10.959073000000046], [106.67461600000007, 10.95899600000007], [106.67461000000009, 10.959023000000059], [106.67422800000008, 10.95894400000003], [106.67421200000007, 10.958940000000041], [106.67420200000004, 10.958984000000044], [106.67418100000003, 10.959072000000049], [106.67375900000008, 10.958990000000028], [106.67379500000004, 10.958798000000058], [106.67349200000007, 10.958736000000044], [106.67346700000007, 10.958724000000075], [106.67327600000004, 10.958690000000047], [106.67323200000004, 10.958683000000065], [106.67315900000006, 10.95867000000004], [106.67317600000007, 10.95859500000006], [106.67284700000005, 10.958540000000028], [106.67291200000005, 10.958300000000065], [106.67294800000008, 10.958168000000057], [106.67295900000005, 10.95813000000004], [106.67305200000004, 10.957787000000053], [106.67276200000003, 10.957715000000064], [106.67275500000005, 10.957712000000072], [106.67279400000007, 10.957586000000049], [106.67280500000004, 10.957548000000031], [106.67276200000003, 10.957530000000077], [106.67274600000007, 10.957524000000035], [106.67262100000005, 10.95747300000005], [106.67259500000006, 10.957464000000073], [106.67223800000005, 10.957335000000057], [106.67217000000005, 10.957313000000056], [106.67198000000008, 10.95722900000004], [106.67203600000005, 10.957070000000044], [106.67209500000007, 10.956909000000053], [106.67210700000004, 10.95688000000007], [106.67215300000004, 10.956773000000055], [106.67218700000006, 10.956697000000077], [106.67227400000007, 10.956504000000052], [106.67228200000005, 10.956488000000036], [106.67228400000005, 10.956482000000051], [106.67228500000004, 10.956479000000058], [106.67227900000006, 10.956475000000069], [106.67227500000007, 10.956472000000076], [106.67227100000008, 10.956466000000034], [106.67226800000009, 10.956459000000052], [106.67226800000009, 10.956451000000072], [106.67226900000009, 10.956448000000023], [106.67230600000005, 10.95635500000003], [106.67204200000003, 10.956229000000064], [106.67195800000007, 10.956188000000054], [106.67192400000005, 10.956172000000038], [106.67188600000009, 10.956266000000028], [106.67187100000007, 10.956304000000046], [106.67183500000004, 10.956393000000048], [106.67142800000005, 10.956255000000056], [106.67143100000004, 10.956242000000032], [106.67144900000005, 10.956161000000066], [106.67145300000004, 10.956144000000052], [106.67145400000004, 10.956136000000072], [106.67145500000004, 10.956134000000077], [106.67145700000003, 10.956128000000035], [106.67152600000009, 10.955926000000034], [106.67154600000003, 10.955868000000066], [106.67143900000008, 10.955832000000044], [106.67095500000005, 10.955666000000065], [106.67100400000004, 10.955552000000068], [106.67098000000004, 10.955544000000032], [106.67092000000008, 10.955524000000025], [106.67056000000008, 10.955401000000052], [106.67055000000005, 10.95539800000006], [106.67050300000005, 10.955376000000058], [106.67029600000006, 10.955283000000065], [106.67027900000005, 10.955275000000029], [106.67002700000006, 10.955133000000046], [106.66999200000004, 10.95511300000004], [106.66993600000006, 10.955086000000051], [106.66975300000007, 10.954932000000042], [106.66964400000006, 10.954841000000044], [106.66951500000005, 10.954727000000048], [106.66935100000006, 10.954584000000068], [106.66916500000008, 10.95440300000007], [106.66915200000005, 10.954390000000046], [106.66914000000008, 10.954378000000077], [106.66930800000006, 10.954248000000064], [106.66931500000004, 10.954243000000076], [106.66933500000005, 10.954226000000062], [106.66945100000004, 10.95414500000004], [106.66950800000006, 10.954099000000042], [106.66953800000005, 10.954071000000056], [106.66959400000007, 10.954018000000076], [106.66964800000005, 10.953948000000025], [106.66967900000009, 10.953911000000062], [106.66974100000004, 10.953823000000057], [106.66975400000007, 10.953802000000053], [106.66989700000005, 10.953499000000022], [106.67001600000003, 10.953253000000075], [106.66988400000008, 10.953227000000027], [106.66956400000004, 10.953050000000076], [106.66927900000007, 10.952836000000048], [106.66872000000006, 10.952419000000077], [106.66850900000009, 10.952284000000077], [106.66831500000006, 10.952108000000067], [106.66820900000005, 10.952073000000041], [106.66811100000007, 10.952041000000065], [106.66789900000003, 10.95200600000004], [106.66779000000008, 10.951989000000026], [106.66762600000004, 10.951962000000037], [106.66749700000008, 10.951955000000055], [106.66740300000004, 10.95194900000007], [106.66728400000005, 10.951943000000028], [106.66707400000007, 10.952001000000052], [106.66706600000003, 10.952012000000025], [106.66704000000004, 10.952048000000048], [106.66696100000007, 10.952157000000057], [106.66694300000006, 10.95218200000005], [106.66685200000006, 10.952267000000063], [106.66679600000003, 10.952320000000043], [106.66666900000007, 10.95243800000003], [106.66658900000004, 10.95251200000007], [106.66657300000008, 10.952531000000022], [106.66653100000008, 10.952577000000076], [106.66645700000004, 10.952660000000037], [106.66639200000009, 10.952732000000026], [106.66638700000004, 10.952719000000059], [106.66637700000007, 10.95270000000005], [106.66631300000006, 10.952532000000076], [106.66622700000005, 10.95229100000006], [106.66618700000004, 10.952180000000055], [106.66617700000006, 10.952150000000074], [106.66614000000004, 10.952048000000048], [106.66609500000004, 10.951923000000022], [106.66608600000006, 10.951874000000032], [106.66604100000006, 10.95176200000003], [106.66598600000003, 10.951626000000033], [106.66599100000008, 10.951456000000064], [106.66602900000004, 10.95126700000003], [106.66608700000006, 10.951078000000052], [106.66614600000008, 10.950945000000047], [106.66625900000008, 10.950795000000028], [106.66652800000008, 10.950537000000054], [106.66673500000007, 10.950337000000047], [106.66681200000005, 10.95029100000005], [106.66728800000004, 10.950099000000023], [106.66753800000004, 10.950001000000043], [106.66764700000004, 10.949952000000053], [106.66776000000004, 10.949884000000054], [106.66785200000004, 10.949797000000046], [106.66792900000007, 10.949690000000032], [106.66795000000008, 10.949643000000037], [106.66796700000003, 10.949603000000025], [106.66798500000004, 10.94954800000005], [106.66799700000007, 10.949517000000071], [106.66800700000005, 10.949481000000048], [106.66803400000003, 10.949396000000036], [106.66805400000004, 10.949313000000075], [106.66809000000006, 10.949163000000055], [106.66815200000008, 10.948906000000022], [106.66819500000008, 10.948766000000035], [106.66820000000007, 10.948750000000075], [106.66828100000004, 10.948558000000048], [106.66833800000006, 10.948453000000029], [106.66839000000004, 10.948364000000026], [106.66845700000005, 10.948269000000039], [106.66856500000006, 10.948141000000021], [106.66859500000004, 10.948106000000053], [106.66870400000005, 10.948010000000068], [106.66872100000006, 10.947996000000046], [106.66881000000006, 10.947921000000065], [106.66888300000005, 10.94785900000005], [106.66929600000009, 10.94756300000006], [106.66929700000009, 10.94756300000006], [106.66938100000004, 10.947502000000043], [106.66939300000007, 10.94749100000007], [106.67000600000006, 10.94696300000004], [106.67008600000008, 10.946894000000043], [106.67007300000006, 10.946877000000029], [106.67005500000005, 10.946855000000028], [106.67002700000006, 10.946818000000064], [106.67001600000003, 10.946804000000043], [106.66997200000009, 10.946745000000021], [106.66992300000004, 10.946680000000072], [106.66989900000004, 10.946648000000039], [106.66989900000004, 10.946647000000041], [106.66987000000006, 10.946609000000024], [106.66981400000009, 10.946533000000045], [106.66975800000006, 10.946456000000069], [106.66970600000008, 10.946382000000028], [106.66965900000008, 10.946312000000034], [106.66961900000007, 10.94624600000003], [106.66958700000004, 10.946183000000076], [106.66957800000006, 10.946161000000075], [106.66956300000004, 10.94612600000005], [106.66954800000008, 10.946074000000067], [106.66954100000004, 10.946043000000031], [106.66953600000005, 10.946024000000023], [106.66953300000006, 10.946012000000053], [106.66952300000008, 10.945970000000045], [106.66951900000004, 10.945954000000029], [106.66951000000006, 10.945921000000055], [106.66950900000006, 10.945917000000065], [106.66949800000003, 10.945877000000053], [106.66949600000004, 10.945872000000065], [106.66948700000006, 10.945840000000032], [106.66947800000008, 10.945815000000039], [106.66946900000005, 10.94579200000004], [106.66945700000008, 10.945767000000046], [106.66944300000006, 10.945737000000065], [106.66943200000009, 10.945718000000056], [106.66942300000005, 10.94570200000004], [106.66939600000006, 10.945658000000037], [106.66936200000004, 10.94560800000005], [106.66934300000008, 10.945582000000059], [106.66932300000008, 10.945554000000072], [106.66927900000007, 10.94549500000005], [106.66923100000008, 10.94543200000004], [106.66918200000003, 10.94536800000003], [106.66914400000007, 10.945320000000038], [106.66913200000005, 10.945305000000076], [106.66908300000006, 10.945242000000064], [106.66903600000006, 10.945181000000048], [106.66899200000006, 10.945123000000024], [106.66895400000004, 10.945070000000044], [106.66892400000006, 10.945024000000046], [106.66890100000006, 10.944986000000029], [106.66888700000004, 10.944958000000042], [106.66888500000005, 10.944952000000058], [106.66887900000006, 10.944937000000039], [106.66887800000006, 10.944934000000046], [106.66887100000008, 10.94491000000005], [106.66886100000005, 10.944883000000061], [106.66885000000008, 10.944855000000075], [106.66883800000005, 10.94482800000003], [106.66882600000008, 10.944802000000038], [106.66881100000006, 10.944776000000047], [106.66879100000006, 10.944746000000066], [106.66876400000007, 10.944713000000036], [106.66874600000006, 10.94469300000003], [106.66874100000007, 10.944688000000042], [106.66873400000009, 10.944680000000062], [106.66871000000003, 10.944653000000073], [106.66869200000008, 10.94463200000007], [106.66868800000009, 10.944627000000025], [106.66867500000006, 10.944611000000066], [106.66865300000006, 10.944585000000075], [106.66864100000004, 10.94457200000005], [106.66862700000007, 10.944555000000037], [106.66860200000008, 10.944526000000053], [106.66858200000007, 10.944499000000064], [106.66856300000006, 10.944470000000024], [106.66854300000006, 10.944435000000055], [106.66852200000005, 10.944394000000045], [106.66850100000005, 10.944352000000038], [106.66848400000003, 10.944316000000072], [106.66848100000004, 10.944309000000032], [106.66848000000005, 10.94430600000004], [106.66846300000009, 10.944268000000022], [106.66844900000007, 10.944231000000059], [106.66843900000003, 10.944200000000023], [106.66843700000004, 10.944194000000039], [106.66841900000009, 10.944147000000044], [106.66839400000003, 10.944093000000066], [106.66836900000004, 10.944047000000069], [106.66834400000005, 10.944005000000061], [106.66831500000006, 10.943961000000058], [106.66828200000003, 10.943918000000053], [106.66824600000007, 10.943875000000048], [106.66823400000004, 10.943861000000027], [106.66820800000005, 10.943831000000046], [106.66816700000004, 10.943783000000053], [106.66812500000009, 10.943729000000076], [106.66808100000009, 10.943673000000047], [106.66806800000006, 10.943656000000033], [106.66803800000008, 10.943616000000077], [106.66799700000007, 10.943562000000043], [106.66795700000006, 10.943513000000053], [106.66791900000004, 10.943467000000055], [106.66788100000008, 10.943423000000053], [106.66784300000006, 10.943384000000037], [106.66780600000004, 10.943352000000061], [106.66776900000008, 10.94332600000007], [106.66773200000006, 10.943306000000064], [106.66769300000004, 10.943290000000047], [106.66765200000003, 10.943277000000023], [106.66760600000003, 10.943266000000051], [106.66755200000006, 10.943258000000071], [106.66749200000004, 10.94325200000003], [106.66743100000008, 10.943247000000042], [106.66737000000006, 10.94324400000005], [106.66731900000008, 10.943242000000055], [106.66731000000004, 10.943242000000055], [106.66725400000007, 10.94324400000005], [106.66720400000008, 10.943249000000037], [106.66716000000008, 10.943257000000074], [106.66711900000007, 10.943268000000046], [106.66708900000003, 10.943279000000075], [106.66708200000005, 10.94328100000007], [106.66704900000008, 10.943296000000032], [106.66701900000004, 10.943313000000046], [106.66699200000005, 10.943333000000052], [106.66696900000005, 10.943357000000049], [106.66694700000005, 10.94338300000004], [106.66692700000004, 10.943413000000021], [106.66692400000005, 10.943419000000063], [106.66690900000003, 10.943446000000051], [106.66689300000007, 10.943486000000064], [106.66687800000005, 10.943533000000059], [106.66686300000003, 10.943585000000041], [106.66686100000004, 10.943591000000026], [106.66684800000007, 10.943635000000029], [106.66683500000005, 10.943679000000031], [106.66682400000008, 10.94371300000006], [106.66681300000005, 10.943744000000038], [106.66680100000008, 10.943778000000066], [106.66678700000006, 10.943816000000027], [106.66677100000004, 10.94385600000004], [106.66675400000008, 10.943898000000047], [106.66673400000008, 10.94394200000005], [106.66671300000007, 10.943984000000057], [106.66671300000007, 10.943985000000055], [106.66671100000008, 10.943988000000047], [106.66669300000007, 10.944027000000062], [106.66667500000005, 10.944067000000075], [106.66667100000006, 10.944076000000052], [106.66665800000004, 10.944105000000036], [106.66664500000007, 10.944133000000022], [106.66664100000008, 10.944142000000056], [106.66662600000006, 10.94417500000003], [106.66662300000007, 10.944181000000071], [106.66661300000004, 10.944205000000068], [106.66659700000008, 10.944235000000049], [106.66657800000007, 10.944266000000027], [106.66655500000007, 10.944296000000065], [106.66653100000008, 10.944323000000054], [106.66650500000009, 10.94434700000005], [106.66647600000005, 10.944367000000057], [106.66644600000006, 10.94438400000007], [106.66644300000007, 10.944386000000065], [106.66641400000009, 10.944399000000033], [106.66638400000005, 10.944409000000064], [106.66635600000006, 10.944414000000052], [106.66632900000008, 10.944416000000047], [106.66630200000009, 10.944417000000044], [106.66627500000004, 10.944415000000049], [106.66624900000005, 10.944410000000062], [106.66622500000005, 10.944399000000033], [106.66620200000006, 10.944386000000065], [106.66618600000004, 10.944375000000036], [106.66618300000005, 10.944373000000041], [106.66616900000008, 10.944363000000067], [106.66616600000003, 10.944361000000072], [106.66614700000008, 10.94434300000006], [106.66612700000007, 10.944316000000072], [106.66611100000006, 10.944289000000026], [106.66610000000009, 10.944264000000032], [106.66609000000005, 10.944238000000041], [106.66607900000008, 10.944211000000053], [106.66606900000005, 10.944179000000076], [106.66605800000008, 10.944144000000051], [106.66605700000008, 10.944141000000059], [106.66604600000005, 10.944106000000033], [106.66603400000008, 10.94406900000007], [106.66602100000006, 10.944034000000045], [106.66600700000004, 10.944002000000069], [106.66599200000007, 10.94397200000003], [106.66597700000005, 10.943943000000047], [106.66596300000003, 10.943920000000048], [106.66596000000004, 10.943916000000058], [106.66594200000009, 10.943888000000072], [106.66592000000009, 10.943861000000027], [106.66591800000003, 10.943857000000037], [106.66589600000003, 10.943832000000043], [106.66586900000004, 10.943804000000057], [106.66583700000007, 10.94377600000007], [106.66582700000004, 10.943767000000037], [106.66580100000004, 10.94374700000003], [106.66576100000009, 10.943718000000047], [106.66573400000004, 10.94369800000004], [106.66572000000008, 10.943688000000066], [106.66567800000007, 10.943659000000025], [106.66565100000008, 10.943642000000068], [106.66563900000006, 10.943632000000036], [106.66562600000009, 10.943614000000025], [106.66561800000005, 10.943597000000068], [106.66560400000009, 10.943577000000062], [106.66558400000008, 10.943552000000068], [106.66556800000006, 10.943523000000027], [106.66555300000005, 10.943496000000039], [106.66553300000004, 10.943479000000025], [106.66550500000005, 10.94346900000005], [106.66548100000006, 10.943466000000058], [106.66546700000004, 10.943464000000063], [106.66542100000004, 10.943466000000058], [106.66537300000005, 10.94347300000004], [106.66533200000003, 10.943481000000077], [106.66529700000007, 10.943488000000059], [106.66527300000007, 10.943496000000039], [106.66523100000006, 10.943507000000068], [106.66517900000008, 10.943547000000024], [106.66516600000006, 10.94355900000005], [106.66516100000007, 10.94356300000004], [106.66514800000004, 10.94357400000007], [106.66513600000008, 10.943583000000046], [106.66512500000005, 10.943591000000026], [106.66512000000006, 10.943595000000073], [106.66511200000008, 10.943601000000058], [106.66508800000008, 10.943621000000064], [106.66506400000009, 10.943647000000055], [106.66504100000009, 10.943677000000037], [106.66503100000006, 10.94369000000006], [106.66501600000004, 10.943712000000062], [106.66499200000004, 10.943748000000028], [106.66499000000005, 10.943751000000077], [106.66498900000005, 10.943753000000072], [106.66496300000006, 10.943793000000028], [106.66493500000007, 10.943838000000028], [106.66491000000008, 10.943886000000077], [106.66489100000007, 10.94392700000003], [106.66488800000008, 10.94393400000007], [106.66488400000009, 10.943943000000047], [106.66487000000006, 10.943978000000072], [106.66485700000004, 10.944020000000023], [106.66484600000007, 10.944063000000028], [106.66483700000003, 10.944108000000028], [106.66483000000005, 10.944155000000023], [106.66482500000006, 10.944203000000073], [106.66482000000008, 10.94425300000006], [106.66481600000009, 10.944304000000045], [106.66481500000003, 10.944322000000057], [106.66481300000004, 10.94435500000003], [106.66480800000005, 10.944412000000057], [106.66480400000006, 10.944468000000029], [106.66479800000008, 10.94452300000006], [106.66479200000003, 10.94457600000004], [106.66478500000005, 10.944627000000025], [106.66477900000007, 10.944667000000038], [106.66477700000007, 10.944687000000044], [106.66477500000008, 10.944701000000066], [106.66477000000003, 10.944723000000067], [106.66476400000005, 10.94475200000005], [106.66475600000007, 10.944782000000032], [106.66474800000009, 10.94481200000007], [106.66473800000006, 10.944841000000054], [106.66472500000003, 10.944874000000027], [106.66472200000004, 10.944880000000069], [106.66470400000009, 10.94491800000003], [106.66467900000004, 10.944974000000059], [106.66466800000006, 10.94499600000006], [106.66466700000007, 10.944998000000055], [106.66464800000006, 10.945036000000073], [106.66458000000006, 10.94517600000006], [106.66454500000003, 10.94524800000005], [106.66452500000008, 10.94527800000003], [106.66449500000004, 10.945326000000023], [106.66446300000007, 10.945373000000075], [106.66445900000008, 10.945378000000062], [106.66443100000004, 10.94542000000007], [106.66440200000005, 10.945464000000072], [106.66437200000007, 10.945508000000075], [106.66434500000008, 10.945550000000026], [106.66431900000003, 10.94559300000003], [106.66429200000005, 10.94564200000002], [106.66426500000006, 10.945691000000068], [106.66424800000004, 10.945726000000036], [106.66424000000006, 10.945742000000052], [106.66419300000007, 10.945830000000058], [106.66418400000003, 10.94587400000006], [106.66418000000004, 10.945892000000072], [106.66417400000006, 10.945918000000063], [106.66416700000008, 10.945937000000072], [106.66416000000004, 10.945955000000026], [106.66414800000007, 10.945981000000074], [106.66413800000004, 10.946004000000073], [106.66412000000008, 10.946044000000029], [106.66410700000006, 10.94607300000007], [106.66409200000004, 10.946102000000053], [106.66407000000004, 10.946142000000066], [106.66404300000005, 10.946190000000058], [106.66402000000005, 10.946229000000073], [106.66400000000004, 10.94625700000006], [106.66397600000005, 10.946285000000046], [106.66394900000006, 10.946313000000032], [106.66391900000008, 10.94634300000007], [106.66388300000006, 10.946382000000028], [106.66384500000004, 10.946425000000033], [106.66384000000005, 10.946431000000075], [106.66379800000004, 10.946477000000073], [106.66375600000003, 10.946524000000068], [106.66371100000003, 10.946571000000063], [106.66366600000003, 10.946612000000073], [106.66362800000007, 10.946644000000049], [106.66358900000006, 10.94667400000003], [106.66355300000004, 10.946699000000024], [106.66352300000005, 10.946717000000035], [106.66346600000008, 10.946762000000035], [106.66342300000008, 10.946776000000057], [106.66323600000004, 10.94673000000006], [106.66315800000007, 10.94670700000006], [106.66312400000004, 10.946694000000036], [106.66309600000005, 10.946684000000062], [106.66306100000008, 10.94667400000003], [106.66302300000007, 10.946663000000058], [106.66298500000005, 10.946652000000029], [106.66294700000009, 10.946640000000059], [106.66291000000007, 10.946630000000027], [106.66287300000005, 10.94662100000005], [106.66283600000008, 10.946612000000073], [106.66279700000007, 10.946604000000036], [106.66275800000005, 10.946597000000054], [106.66271900000004, 10.946592000000066], [106.66271700000004, 10.946592000000066], [106.66267600000003, 10.946589000000074], [106.66263200000009, 10.946587000000022], [106.66258800000008, 10.94658400000003], [106.66254500000008, 10.946577000000048], [106.66250200000007, 10.946566000000075], [106.66245800000007, 10.946554000000049], [106.66241200000007, 10.946540000000027], [106.66236400000008, 10.946526000000063], [106.66232000000008, 10.946511000000044], [106.66228300000006, 10.946497000000022], [106.66225400000008, 10.946481000000063], [106.66222800000008, 10.946465000000046], [106.66222200000004, 10.946460000000059], [106.66220600000008, 10.946448000000032], [106.66218700000007, 10.946429000000023], [106.66217000000006, 10.946410000000071], [106.66215200000005, 10.946390000000065], [106.66213000000005, 10.946372000000054], [106.66210100000006, 10.94635500000004], [106.66210000000007, 10.94635500000004], [106.66205700000006, 10.946339000000023], [106.66204400000004, 10.946334000000036], [106.66199200000005, 10.946321000000069], [106.66195300000004, 10.946317000000022], [106.66191700000007, 10.946315000000027], [106.66188200000005, 10.946316000000024], [106.66186400000004, 10.946316000000024], [106.66185400000006, 10.946317000000022], [106.66182900000007, 10.946317000000022], [106.66182700000007, 10.946317000000022], [106.66180500000007, 10.946316000000024], [106.66178100000008, 10.946317000000022], [106.66177600000009, 10.946318000000076], [106.66175300000003, 10.946319000000074], [106.66171100000008, 10.946319000000074], [106.66167200000007, 10.946316000000024], [106.66165000000007, 10.946315000000027], [106.66159600000009, 10.946313000000032], [106.66158600000006, 10.946313000000032], [106.66157400000009, 10.946313000000032], [106.66152700000004, 10.946312000000034], [106.66147000000007, 10.946308000000045], [106.66141000000005, 10.946301000000062], [106.66135200000008, 10.946293000000026], [106.66129200000006, 10.946284000000048], [106.66122700000005, 10.946273000000076], [106.66120100000006, 10.946268000000032], [106.66116400000004, 10.946262000000047], [106.66111500000005, 10.946254000000067], [106.66110400000008, 10.946252000000072], [106.66109200000005, 10.946250000000077], [106.66108900000006, 10.946250000000077], [106.66107400000004, 10.946248000000026], [106.66105700000008, 10.946244000000036], [106.66103200000003, 10.94623800000005], [106.66099400000007, 10.94622400000003], [106.66095000000007, 10.946202000000028], [106.66090800000006, 10.946178000000032], [106.66087700000008, 10.946154000000035], [106.66085800000008, 10.946132000000034], [106.66084700000005, 10.94611100000003], [106.66084600000005, 10.94610700000004], [106.66083700000007, 10.946090000000027], [106.66082000000006, 10.946067000000028], [106.66079800000006, 10.946047000000021], [106.66079500000006, 10.946044000000029], [106.66077000000007, 10.946019000000035], [106.66074400000008, 10.945990000000052], [106.66071600000004, 10.945957000000021], [106.66068700000005, 10.945922000000053], [106.66067800000008, 10.945909000000029], [106.66066100000006, 10.94588200000004], [106.66063400000007, 10.94583300000005], [106.66061800000006, 10.945803000000069], [106.66060300000004, 10.945775000000026], [106.66057200000006, 10.945715000000064], [106.66054300000008, 10.945652000000052], [106.66052000000008, 10.945587000000046], [106.66050000000007, 10.94552200000004], [106.66048200000006, 10.945461000000023], [106.66046900000003, 10.94541300000003], [106.66045700000006, 10.94536800000003], [106.66044400000004, 10.945320000000038], [106.66043800000006, 10.94528500000007], [106.66043600000006, 10.945256000000029], [106.66043500000006, 10.94522500000005], [106.66043900000005, 10.945200000000057], [106.66044100000005, 10.945192000000077], [106.66044400000004, 10.945179000000053], [106.66044600000004, 10.945156000000054], [106.66044300000004, 10.945124000000021], [106.66043900000005, 10.94509400000004], [106.66043700000006, 10.945084000000065], [106.66043200000007, 10.94504100000006], [106.66042800000008, 10.944995000000063], [106.66042800000008, 10.944989000000021], [106.66042400000003, 10.94494700000007], [106.66042200000004, 10.944929000000059], [106.66041900000005, 10.944901000000073], [106.66041200000006, 10.944860000000062], [106.66040400000009, 10.94482400000004], [106.66039300000006, 10.944786000000022], [106.66038000000009, 10.944745000000069], [106.66036400000007, 10.94470700000005], [106.66035800000009, 10.944694000000027], [106.66034700000006, 10.944669000000033], [106.66033800000008, 10.944645000000037], [106.66032900000005, 10.944623000000036], [106.66031000000004, 10.944577000000038], [106.66029900000007, 10.944553000000042], [106.66029100000009, 10.94453500000003], [106.66027200000008, 10.944494000000077], [106.66026000000005, 10.944454000000064], [106.66025600000006, 10.944430000000068], [106.66025200000007, 10.944413000000054], [106.66023900000005, 10.944364000000064], [106.66021500000005, 10.94430600000004], [106.66018600000007, 10.94424900000007], [106.66016500000006, 10.944211000000053], [106.66015600000009, 10.944195000000036], [106.66012900000004, 10.944152000000031], [106.66010100000005, 10.944116000000065], [106.66007000000008, 10.94407700000005], [106.66003800000004, 10.944037000000037], [106.66000500000007, 10.944000000000074], [106.65997300000004, 10.943975000000023], [106.65995500000008, 10.943965000000048], [106.65994500000005, 10.943959000000063], [106.65992400000005, 10.943944000000045], [106.65991000000008, 10.94392700000003], [106.65990200000005, 10.943909000000076], [106.65989800000006, 10.943887000000075], [106.65989700000006, 10.94388200000003], [106.65989400000007, 10.943859000000032], [106.65988100000004, 10.94382100000007], [106.65985800000004, 10.943778000000066], [106.65983800000004, 10.94374300000004], [106.65983800000004, 10.943742000000043], [106.65981700000003, 10.943708000000072], [106.65978300000006, 10.943662000000074], [106.65974900000003, 10.94361900000007], [106.65974500000004, 10.943615000000023], [106.65970300000004, 10.943560000000048], [106.65969500000006, 10.943550000000073], [106.65965300000005, 10.943495000000041], [106.65960400000006, 10.943435000000022], [106.65955500000007, 10.943374000000063], [106.65949500000005, 10.943302000000074], [106.65943500000009, 10.943234000000075], [106.65943200000004, 10.943230000000028], [106.65936800000009, 10.94315800000004], [106.65930500000007, 10.943080000000066], [106.65924400000006, 10.94300000000004], [106.65921900000006, 10.942967000000067], [106.65918400000004, 10.942922000000067], [106.65914600000008, 10.942872000000023], [106.65913000000006, 10.942852000000073], [106.65911300000005, 10.942830000000072], [106.65908300000007, 10.942791000000057], [106.65904100000006, 10.94273400000003], [106.65899900000005, 10.942676000000063], [106.65895900000004, 10.942611000000056], [106.65893800000003, 10.942572000000041], [106.65892000000008, 10.94253800000007], [106.65888200000006, 10.94246400000003], [106.65884500000004, 10.942389000000048], [106.65880700000008, 10.942311000000075], [106.65877100000006, 10.94223100000005], [106.65873500000004, 10.942151000000024], [106.65870900000004, 10.942090000000064], [106.65870400000006, 10.94207700000004], [106.65867200000008, 10.942005000000051], [106.65863800000005, 10.941929000000073], [106.65860600000008, 10.941860000000077], [106.65859400000005, 10.941836000000023], [106.65858800000007, 10.941822000000059], [106.65857800000003, 10.941800000000057], [106.65855300000004, 10.941746000000023], [106.65852900000004, 10.94169400000004], [106.65850700000004, 10.941648000000043], [106.65849400000008, 10.941614000000072], [106.65848600000004, 10.94158600000003], [106.65847800000006, 10.941553000000056], [106.65846900000008, 10.941515000000038], [106.65846100000005, 10.941475000000025], [106.65845500000006, 10.941429000000028], [106.65845200000007, 10.941376000000048], [106.65845200000007, 10.941316000000029], [106.65845200000007, 10.941254000000072], [106.65845300000007, 10.941185000000075], [106.65845400000006, 10.941121000000066], [106.65845500000006, 10.941107000000045], [106.65845700000006, 10.941024000000027], [106.65845800000005, 10.94096600000006], [106.65845900000005, 10.940943000000061], [106.65845900000005, 10.940868000000023], [106.65845700000006, 10.940804000000071], [106.65845300000007, 10.940740000000062], [106.65844600000008, 10.940665000000024], [106.65843300000006, 10.940567000000044], [106.65842500000008, 10.940525000000036], [106.65841500000005, 10.940478000000041], [106.65839000000005, 10.940428000000054], [106.65836700000006, 10.940405000000055], [106.65836200000007, 10.94039900000007], [106.65835200000004, 10.940386000000046], [106.65834100000006, 10.940363000000048], [106.65832800000004, 10.940335000000061], [106.65830700000004, 10.940306000000021], [106.65827700000006, 10.940279000000032], [106.65825000000007, 10.940257000000031], [106.65824100000003, 10.940249000000051], [106.65820300000007, 10.94021600000002], [106.65816500000005, 10.94018200000005], [106.65812600000004, 10.940147000000024], [106.65809000000007, 10.940110000000061], [106.65808200000004, 10.940102000000024], [106.65805600000004, 10.940075000000036], [106.65803200000005, 10.94005100000004], [106.65797300000008, 10.940001000000052], [106.65789900000004, 10.939962000000037], [106.65788900000007, 10.939956000000052], [106.65785400000004, 10.939935000000048], [106.65784500000007, 10.93993000000006], [106.65778300000005, 10.939894000000038], [106.65771900000004, 10.939858000000072], [106.65765900000008, 10.939831000000027], [106.65760300000005, 10.93981400000007], [106.65754500000008, 10.93979900000005], [106.65747600000009, 10.939789000000076], [106.65746400000006, 10.939788000000021], [106.65739400000007, 10.939781000000039], [106.65731900000009, 10.939776000000052], [106.65727100000004, 10.939776000000052], [106.65726800000004, 10.939776000000052], [106.65722800000009, 10.939783000000034], [106.65718900000007, 10.939792000000068], [106.65715600000004, 10.939801000000045], [106.65712800000006, 10.939810000000023], [106.65710000000007, 10.939823000000047], [106.65707000000003, 10.93984400000005], [106.65704100000005, 10.939872000000037], [106.65703400000007, 10.939879000000076], [106.65702500000003, 10.93988900000005], [106.65701300000006, 10.939903000000072], [106.65698100000009, 10.939933000000053], [106.65696000000008, 10.939951000000065], [106.65694600000006, 10.93996100000004], [106.65693100000004, 10.93997500000006], [106.65691700000008, 10.939989000000025], [106.65688500000005, 10.940016000000071], [106.65684400000004, 10.940044000000057], [106.65679900000003, 10.940072000000043], [106.65674800000005, 10.940102000000024], [106.65674700000005, 10.940103000000022], [106.65674500000006, 10.940104000000076], [106.65669100000008, 10.94013700000005], [106.65663700000005, 10.940170000000023], [106.65658400000007, 10.940203000000054], [106.65652700000004, 10.940234000000032], [106.65645900000004, 10.94026400000007], [106.65638100000007, 10.940295000000049], [106.65630200000004, 10.94032500000003], [106.65629600000005, 10.940327000000025], [106.65623200000005, 10.940351000000021], [106.65618400000005, 10.940372000000025], [106.65615200000008, 10.940389000000039], [106.65614300000004, 10.940393000000029], [106.65612600000009, 10.940401000000065], [106.65612100000004, 10.94040300000006], [106.65610100000004, 10.940413000000035], [106.65607600000004, 10.940427000000057], [106.65601700000008, 10.94044400000007], [106.65601500000008, 10.940445000000068], [106.65599000000009, 10.940445000000068], [106.65593100000007, 10.940443000000073], [106.65591100000006, 10.940440000000024], [106.65588800000006, 10.940437000000031], [106.65586200000007, 10.940433000000041], [106.65582900000004, 10.940428000000054], [106.65578800000009, 10.940423000000067], [106.65573600000005, 10.940414000000033], [106.65568000000007, 10.940397000000075], [106.65563100000008, 10.940376000000072], [106.65558200000004, 10.940355000000068], [106.65552400000007, 10.940334000000064], [106.65546400000005, 10.940315000000055], [106.65540000000004, 10.940292000000056], [106.65532200000007, 10.940267000000063], [106.65523800000005, 10.940242000000069], [106.65515100000005, 10.94021900000007], [106.65506400000004, 10.940200000000061], [106.65497900000008, 10.940184000000045], [106.65490300000005, 10.940170000000023], [106.65482800000007, 10.940156000000059], [106.65474600000005, 10.94014500000003], [106.65466600000008, 10.94014100000004], [106.65459000000004, 10.940142000000037], [106.65451600000006, 10.94014500000003], [106.65443900000008, 10.940151000000071], [106.65436400000004, 10.940162000000043], [106.65429300000005, 10.94017400000007], [106.65422400000006, 10.940189000000032], [106.65415900000005, 10.940207000000044], [106.65410100000008, 10.940232000000037], [106.65404900000004, 10.940259000000026], [106.65399800000006, 10.940286000000071], [106.65394800000007, 10.940315000000055], [106.65389100000004, 10.940349000000026], [106.65382600000004, 10.940390000000036], [106.65376400000008, 10.940431000000046], [106.65370400000006, 10.940473000000054], [106.65364100000005, 10.940518000000054], [106.65359000000007, 10.94055700000007], [106.65355400000004, 10.940589000000045], [106.65351900000007, 10.940619000000027], [106.65348500000005, 10.940645000000075], [106.65345400000007, 10.940667000000076], [106.65342200000003, 10.940684000000033], [106.65338600000007, 10.94070400000004], [106.65334900000005, 10.940731000000028], [106.65331500000008, 10.940759000000071], [106.65328600000004, 10.940783000000067], [106.65325900000005, 10.940807000000063], [106.65325700000005, 10.940808000000061], [106.65322500000008, 10.940842000000032], [106.65318500000006, 10.940890000000024], [106.65314200000006, 10.940943000000061], [106.65310000000005, 10.940996000000041], [106.65308200000004, 10.941022000000032], [106.65306500000008, 10.941045000000031], [106.65304200000008, 10.941081000000054], [106.65303000000006, 10.94110100000006], [106.65302300000008, 10.94111300000003], [106.65300200000007, 10.941151000000048], [106.65298900000005, 10.941183000000024], [106.65298700000005, 10.941197000000045], [106.65298500000006, 10.941207000000077], [106.65298600000006, 10.941231000000073], [106.65298000000007, 10.941264000000047], [106.65296700000005, 10.94130400000006], [106.65296200000006, 10.941340000000025], [106.65296300000006, 10.941374000000053], [106.65295900000007, 10.94141600000006], [106.65294800000004, 10.941468000000043], [106.65293700000007, 10.941522000000077], [106.65292300000004, 10.941579000000047], [106.65290300000004, 10.941637000000071], [106.65288300000009, 10.941688000000056], [106.65286200000008, 10.941730000000064], [106.65283800000009, 10.941764000000035], [106.65281400000003, 10.941794000000073], [106.65279000000004, 10.941819000000066], [106.65276500000004, 10.941843000000063], [106.65274000000005, 10.941867000000059], [106.65271500000006, 10.941890000000058], [106.65268900000007, 10.941913000000056], [106.65266100000008, 10.941935000000058], [106.65264200000007, 10.941950000000077], [106.65241000000009, 10.94204700000006], [106.65229700000003, 10.942095000000052], [106.65133700000007, 10.942224000000067], [106.65135400000008, 10.942283000000032], [106.65137100000004, 10.942330000000027], [106.65139000000005, 10.942378000000076], [106.65140700000006, 10.942427000000066], [106.65141800000004, 10.942466000000024], [106.65142300000008, 10.942487000000028], [106.65144000000004, 10.942559000000074], [106.65145500000006, 10.942634000000055], [106.65147000000007, 10.942711000000031], [106.65148400000004, 10.942794000000049], [106.65149800000006, 10.942890000000034], [106.65151200000008, 10.942991000000063], [106.65152400000005, 10.94307200000003], [106.65153400000008, 10.943133000000046], [106.65154100000007, 10.943192000000067], [106.65154700000005, 10.943255000000022], [106.65155500000009, 10.943321000000026], [106.65156300000007, 10.943378000000052], [106.65158400000007, 10.94346900000005], [106.65159500000004, 10.943507000000068], [106.65160700000007, 10.943547000000024], [106.65162000000004, 10.94359600000007], [106.65163300000006, 10.943660000000023], [106.65164600000008, 10.94373500000006], [106.65165300000007, 10.94377600000007], [106.65165900000005, 10.943817000000024], [106.65167200000008, 10.943902000000037], [106.65168400000005, 10.943974000000026], [106.65169500000007, 10.94402800000006], [106.65170700000004, 10.944086000000027], [106.65172300000006, 10.94415900000007], [106.65174100000007, 10.944239000000039], [106.65176500000007, 10.944367000000057], [106.65177700000004, 10.94443300000006], [106.65179300000005, 10.944547000000057], [106.65180700000008, 10.944654000000071], [106.65181600000005, 10.944729000000052], [106.65182300000004, 10.944788000000074], [106.65183200000007, 10.944855000000075], [106.65184300000004, 10.944926000000066], [106.65185800000006, 10.944990000000075], [106.65187800000007, 10.945052000000032], [106.65189800000007, 10.945113000000049], [106.65191100000004, 10.945158000000049], [106.65191500000009, 10.94517200000007], [106.65193100000005, 10.945227000000045], [106.65194800000006, 10.94527800000003], [106.65196500000008, 10.945341000000042], [106.65198300000009, 10.94542000000007], [106.65200200000004, 10.945506000000023], [106.65201900000005, 10.945592000000033], [106.65203200000008, 10.945672000000059], [106.65204000000006, 10.945742000000052], [106.65204700000004, 10.945812000000046], [106.65205600000007, 10.945889000000022], [106.65206700000005, 10.94596000000007], [106.65207700000008, 10.94601300000005], [106.65208500000006, 10.946059000000048], [106.65209500000009, 10.946102000000053], [106.65210800000006, 10.946147000000053], [106.65212000000008, 10.946196000000043], [106.65213000000006, 10.946248000000026], [106.65213700000004, 10.946303000000057], [106.65214200000008, 10.94635900000003], [106.65214300000008, 10.946421000000043], [106.65213400000005, 10.946499000000074], [106.65211500000004, 10.946597000000054], [106.65210800000006, 10.946642000000054], [106.65209800000008, 10.946721000000025], [106.65209800000008, 10.946844000000056], [106.65209800000008, 10.946867000000054], [106.65210900000005, 10.947021000000063], [106.65212200000008, 10.947167000000036], [106.65213400000005, 10.947310000000073], [106.65214600000007, 10.947447000000068], [106.65215600000005, 10.947565000000054], [106.65216200000003, 10.947651000000064], [106.65216700000008, 10.947734000000025], [106.65217200000006, 10.94784500000003], [106.65217800000005, 10.947965000000067], [106.65218400000003, 10.948068000000035], [106.65219400000007, 10.94814400000007], [106.65220800000009, 10.948204000000032], [106.65222300000005, 10.948260000000062], [106.65222300000005, 10.948261000000059], [106.65223800000007, 10.948294000000033], [106.65225300000009, 10.948308000000054], [106.65226600000005, 10.948323000000073], [106.65227700000008, 10.948361000000034], [106.65228700000006, 10.948436000000072], [106.65229600000004, 10.948533000000054], [106.65230300000007, 10.94862500000005], [106.65230700000006, 10.94869600000004], [106.65230800000006, 10.948754000000065], [106.65230700000006, 10.948810000000037], [106.65230600000007, 10.948870000000056], [106.65230800000006, 10.94894000000005], [106.65231200000005, 10.949046000000067], [106.65231800000004, 10.949204000000066], [106.65232100000009, 10.949373000000037], [106.65232000000009, 10.949514000000022], [106.65232000000009, 10.949662000000046], [106.65232000000009, 10.949828000000025], [106.65231900000003, 10.949954000000048], [106.65231400000005, 10.950028000000032], [106.65230500000007, 10.950085000000058], [106.65229600000004, 10.950147000000072], [106.65229000000005, 10.950215000000071], [106.65228800000006, 10.950288000000057], [106.65229000000005, 10.950362000000041], [106.65229000000005, 10.95038100000005], [106.65229100000005, 10.950505000000021], [106.65229400000004, 10.950639000000024], [106.65230300000007, 10.950757000000067], [106.65231100000005, 10.950845000000072], [106.65231100000005, 10.950900000000047], [106.65230700000006, 10.950931000000026], [106.65230600000007, 10.95095200000003], [106.65230600000007, 10.950980000000072], [106.65230500000007, 10.951036000000045], [106.65230300000007, 10.951117000000067], [106.65229900000008, 10.951192000000049], [106.65229400000004, 10.951273000000072], [106.65228600000006, 10.951367000000062], [106.65227800000008, 10.951456000000064], [106.65226900000005, 10.951546000000064], [106.65226000000007, 10.951648000000034], [106.65225200000003, 10.951751000000058], [106.65224400000005, 10.951846000000046], [106.65223700000007, 10.95191600000004], [106.65223100000009, 10.951967000000025], [106.65222600000004, 10.952014000000077], [106.65222300000005, 10.952068000000054], [106.65221800000006, 10.952134000000058], [106.65221400000007, 10.95219700000007], [106.65221000000008, 10.952263000000073], [106.65220500000004, 10.952335000000062], [106.65220100000005, 10.95240300000006], [106.65219600000006, 10.952464000000077], [106.65219500000006, 10.95252400000004], [106.65219800000006, 10.952586000000053], [106.65220000000005, 10.952648000000067], [106.65219700000006, 10.952707000000032], [106.65218800000008, 10.952754000000027], [106.65218600000009, 10.952761000000066], [106.65217700000005, 10.952792000000045], [106.65216400000008, 10.952825000000075], [106.65215700000005, 10.952844000000027], [106.65215100000006, 10.952859000000046], [106.65213800000004, 10.952899000000059], [106.65212500000007, 10.952947000000052], [106.65211600000004, 10.952997000000039], [106.65210900000005, 10.953041000000042], [106.65210200000007, 10.953080000000057], [106.65209700000008, 10.95310500000005], [106.65209300000004, 10.953122000000064], [106.65208400000006, 10.953166000000067], [106.65207900000007, 10.953205000000025], [106.65207600000008, 10.95324400000004], [106.65207400000008, 10.953302000000065], [106.65206900000004, 10.953405000000032], [106.65206000000006, 10.953542000000027], [106.65205200000008, 10.953665000000058], [106.65204200000005, 10.953784000000041], [106.65202900000008, 10.953913000000057], [106.65201600000006, 10.954016000000024], [106.65200400000003, 10.954093000000057], [106.65198800000007, 10.954166000000043], [106.65196900000007, 10.954237000000035], [106.65194800000006, 10.954295000000059], [106.65192900000005, 10.954346000000044], [106.65191000000004, 10.954410000000053], [106.65189200000003, 10.954484000000036], [106.65187400000008, 10.954559000000074], [106.65185600000007, 10.954633000000058], [106.65183900000005, 10.95470400000005], [106.65182100000004, 10.95477500000004], [106.65180000000004, 10.954856000000063], [106.65179000000006, 10.954895000000022], [106.65177900000003, 10.954939000000024], [106.65176400000007, 10.954997000000049], [106.65174900000005, 10.955057000000068], [106.65172300000006, 10.955156000000045], [106.65169000000009, 10.955282000000068], [106.65165400000006, 10.955409000000031], [106.65161900000004, 10.955534000000057], [106.65158400000007, 10.95565700000003], [106.65155600000008, 10.955760000000055], [106.65153800000007, 10.955831000000046], [106.65152700000004, 10.955882000000031], [106.65151900000006, 10.955929000000026], [106.65150600000004, 10.95599500000003], [106.65148200000004, 10.956087000000025], [106.65145600000005, 10.95617500000003], [106.65143300000005, 10.956248000000073], [106.65141100000005, 10.956316000000072], [106.65138900000005, 10.95637800000003], [106.65137000000004, 10.95643700000005], [106.65135300000009, 10.95649400000002], [106.65133600000007, 10.956553000000042], [106.65132000000006, 10.956615000000056], [106.65130400000004, 10.956679000000065], [106.65129300000007, 10.95673000000005], [106.65128400000003, 10.95677500000005], [106.65127000000007, 10.95683500000007], [106.65125200000006, 10.956901000000073], [106.65125000000006, 10.956909000000053], [106.65122700000006, 10.956980000000044], [106.65120500000006, 10.957034000000021], [106.65118600000005, 10.957069000000047], [106.65116900000004, 10.957091000000048], [106.65115800000007, 10.95710500000007], [106.65113500000007, 10.957136000000048], [106.65109500000005, 10.957257000000027], [106.65108700000008, 10.957280000000026], [106.65107100000006, 10.95732700000002], [106.65104900000006, 10.957393000000025], [106.65102900000005, 10.957457000000034], [106.65100900000004, 10.957517000000053], [106.65098700000004, 10.957580000000064], [106.65096700000004, 10.957642000000021], [106.65094700000009, 10.95770600000003], [106.65092800000008, 10.957774000000029], [106.65091000000007, 10.957846000000075], [106.65089600000005, 10.957910000000027], [106.65088800000007, 10.95795000000004], [106.65088300000008, 10.957975000000033], [106.65087500000004, 10.958046000000024], [106.65089200000006, 10.958121000000062], [106.65090000000004, 10.958198000000039], [106.65085700000009, 10.95825300000007], [106.65081100000003, 10.958275000000071], [106.65079100000008, 10.958283000000051], [106.65078000000005, 10.958293000000026], [106.65076800000008, 10.958311000000037], [106.65075200000007, 10.958346000000063], [106.65073400000006, 10.958398000000045], [106.65071600000005, 10.958448000000033], [106.65069800000003, 10.95850100000007], [106.65067300000004, 10.958570000000066], [106.65064100000006, 10.958646000000044], [106.65064000000007, 10.958650000000034], [106.65060900000009, 10.958718000000033], [106.65058000000005, 10.958786000000032], [106.65055400000006, 10.95885400000003], [106.65053000000006, 10.958919000000037], [106.65050900000006, 10.958978000000059], [106.65049000000005, 10.959034000000031], [106.65047300000003, 10.959082000000024], [106.65045500000008, 10.959121000000039], [106.65043400000008, 10.959166000000039], [106.65040600000003, 10.959230000000048], [106.65037000000007, 10.959314000000063], [106.65033000000005, 10.959403000000066], [106.65028900000004, 10.959486000000027], [106.65027100000003, 10.959521000000052], [106.65024300000005, 10.959576000000027], [106.65018900000007, 10.959651000000065], [106.65015200000005, 10.959721000000059], [106.65015800000003, 10.959816000000046], [106.65017100000006, 10.959889000000032], [106.65016700000007, 10.959933000000035], [106.65015100000005, 10.959981000000028], [106.65012600000006, 10.960047000000031], [106.65009200000009, 10.96013000000005], [106.65005700000006, 10.96022000000005], [106.65002800000008, 10.960305000000062], [106.65001000000007, 10.960364000000027], [106.65000200000009, 10.96038900000002], [106.64997400000004, 10.960473000000036], [106.64994700000005, 10.960550000000069], [106.64992400000006, 10.960618000000068], [106.64990600000004, 10.960676000000035], [106.64989400000007, 10.960721000000035], [106.64988200000005, 10.960761000000048], [106.64986200000004, 10.960816000000023], [106.64983400000006, 10.96089100000006], [106.64980900000006, 10.960961000000054], [106.64978500000007, 10.961031000000048], [106.64975700000008, 10.96110600000003], [106.64974100000006, 10.961155000000076], [106.64973600000008, 10.961178000000075], [106.64974000000007, 10.961199000000022], [106.64975900000007, 10.961244000000022], [106.64976500000006, 10.96131200000002], [106.64972300000005, 10.961362000000065], [106.64968100000004, 10.961384000000066], [106.64966000000004, 10.961404000000073], [106.64963800000004, 10.961449000000073], [106.64960400000007, 10.961531000000036], [106.64956800000004, 10.961626000000024], [106.64953800000006, 10.96171000000004], [106.64951400000007, 10.961783000000025], [106.64949500000006, 10.961844000000042], [106.64947800000004, 10.961895000000027], [106.64946100000009, 10.961945000000071], [106.64944600000007, 10.961993000000064], [106.64943100000005, 10.962046000000043], [106.64941500000003, 10.962104000000068], [106.64939800000008, 10.96216400000003], [106.64937900000007, 10.962223000000051], [106.64936000000006, 10.962285000000065], [106.64934100000005, 10.962353000000064], [106.64932200000004, 10.96242200000006], [106.64929900000004, 10.962496000000044], [106.64927600000004, 10.962566000000038], [106.64924800000006, 10.962650000000053], [106.64921800000008, 10.962744000000043], [106.64919300000008, 10.962829000000056], [106.64917900000006, 10.962887000000023], [106.64917800000006, 10.96288800000002], [106.64917000000008, 10.962927000000036], [106.64914100000004, 10.963032000000055], [106.64912800000008, 10.963076000000058], [106.64909200000005, 10.96317700000003], [106.64907100000005, 10.963228000000072], [106.64904300000006, 10.96329600000007], [106.64902600000005, 10.963342000000068], [106.64901400000008, 10.96337600000004], [106.64898400000004, 10.963461000000052], [106.64895700000005, 10.963547000000062], [106.64893400000005, 10.963628000000028], [106.64891100000006, 10.963721000000021], [106.64889600000004, 10.963800000000049], [106.64888700000006, 10.963873000000035], [106.64888400000007, 10.963948000000073], [106.64888200000007, 10.964020000000062], [106.64887900000008, 10.964067000000057], [106.64887800000008, 10.964076000000034], [106.64887600000009, 10.964121000000034], [106.64887200000004, 10.964183000000048], [106.64886100000007, 10.964263000000074], [106.64885000000004, 10.964330000000075], [106.64883900000007, 10.964399000000071], [106.64882400000005, 10.964487000000076], [106.64882300000005, 10.964490000000069], [106.64880800000009, 10.964577000000077], [106.64879500000006, 10.964650000000063], [106.64878500000003, 10.964722000000052], [106.64877700000005, 10.96479400000004], [106.64877100000007, 10.964864000000034], [106.64876600000008, 10.964926000000048], [106.64876500000008, 10.964941000000067], [106.64876200000003, 10.964973000000043], [106.64876100000004, 10.96501500000005], [106.64876000000004, 10.96506000000005], [106.64876100000004, 10.965125000000057], [106.64876200000003, 10.965211000000068], [106.64876200000003, 10.965294000000029], [106.64876200000003, 10.965299000000073], [106.64876200000003, 10.965377000000046], [106.64876200000003, 10.965460000000064], [106.64876000000004, 10.965521000000024], [106.64875800000004, 10.965565000000026], [106.64875600000005, 10.96560500000004], [106.64875200000006, 10.965647000000047], [106.64874700000007, 10.965696000000037], [106.64874200000008, 10.965752000000066], [106.64873700000004, 10.965800000000058], [106.64873400000005, 10.965842000000066], [106.64873100000005, 10.965889000000061], [106.64872900000006, 10.965949000000023], [106.64872700000006, 10.966021000000069], [106.64872600000007, 10.966099000000042], [106.64872700000006, 10.966177000000073], [106.64873000000006, 10.966258000000039], [106.64873300000005, 10.96634000000006], [106.64873600000004, 10.966414000000043], [106.64873900000003, 10.96648700000003], [106.64874200000008, 10.966563000000065], [106.64874500000008, 10.966630000000066], [106.64874800000007, 10.966695000000072], [106.64875300000006, 10.966769000000056], [106.64875600000005, 10.966846000000032], [106.64875900000004, 10.96692100000007], [106.64876100000004, 10.966988000000072], [106.64876200000003, 10.96706000000006], [106.64876300000009, 10.967153000000053], [106.64876700000008, 10.96726300000006], [106.64877400000006, 10.96740200000005], [106.64877800000005, 10.967525000000023], [106.64877800000005, 10.967591000000027], [106.64877800000005, 10.967632000000037], [106.64878000000004, 10.967707000000075], [106.64878600000009, 10.967821000000072], [106.64879500000006, 10.967939000000058], [106.64879900000005, 10.967976000000021], [106.64881000000008, 10.968074000000058], [106.64882900000003, 10.968228000000067], [106.64884900000004, 10.968382000000076], [106.64886400000006, 10.96851300000003], [106.64887400000003, 10.968604000000028], [106.64887800000008, 10.968664000000047], [106.64888200000007, 10.968721000000073], [106.64888900000005, 10.968797000000052], [106.64889900000009, 10.968886000000055], [106.64891200000005, 10.968977000000052], [106.64892500000008, 10.969065000000057], [106.64893600000005, 10.969143000000031], [106.64894600000008, 10.969209000000035], [106.64895500000006, 10.969270000000051], [106.64896400000003, 10.96933400000006], [106.64897300000007, 10.96939800000007], [106.64898700000003, 10.969463000000076], [106.64900500000005, 10.969539000000054], [106.64902500000005, 10.969618000000025], [106.64904300000006, 10.96968400000003], [106.64905900000008, 10.96974700000004], [106.64907700000003, 10.96981500000004], [106.64909100000006, 10.969873000000064], [106.64910100000009, 10.969925000000046], [106.64911000000006, 10.969978000000026], [106.64912000000004, 10.970047000000022], [106.64913000000007, 10.97013400000003], [106.64914200000004, 10.970236000000057], [106.64916400000004, 10.970352000000048], [106.64920000000006, 10.970473000000027], [106.64924200000007, 10.970587000000023], [106.64928100000009, 10.970690000000047], [106.64930600000008, 10.970774000000063], [106.64932000000005, 10.97082800000004], [106.64933700000006, 10.970872000000043], [106.64935500000007, 10.970916000000045], [106.64936300000005, 10.970939000000044], [106.64939500000008, 10.971026000000052], [106.64942700000006, 10.97111700000005], [106.64943300000004, 10.971133000000066], [106.64945900000004, 10.971204000000057], [106.64949100000007, 10.971285000000023], [106.64952700000003, 10.971361000000059], [106.64956200000006, 10.971433000000047], [106.64960100000008, 10.971506000000034], [106.64964200000009, 10.971583000000066], [106.64968000000005, 10.971655000000055], [106.64971100000008, 10.97171700000007], [106.64973700000007, 10.971770000000049], [106.64976200000007, 10.971822000000031], [106.64978700000006, 10.971869000000027], [106.64981000000006, 10.97190900000004], [106.64983200000006, 10.97194600000006], [106.64985200000007, 10.97198000000003], [106.64986900000008, 10.972008000000073], [106.64988100000005, 10.972037000000057], [106.64989200000008, 10.972080000000062], [106.64990200000005, 10.972132000000045], [106.64991300000008, 10.972185000000025], [106.64992700000005, 10.972233000000074], [106.64994300000006, 10.972286000000054], [106.64995700000009, 10.972350000000063], [106.64996900000006, 10.972416000000067], [106.64997200000005, 10.972434000000021], [106.64997900000009, 10.972473000000036], [106.64999000000006, 10.972523000000024], [106.65000100000009, 10.972573000000068], [106.65001400000006, 10.972628000000043], [106.65002800000008, 10.972691000000054], [106.65004300000004, 10.972757000000058], [106.65005800000006, 10.972816000000023], [106.65007600000007, 10.972866000000067], [106.65009800000007, 10.972915000000057], [106.65009800000007, 10.972917000000052], [106.65012100000007, 10.972974000000022], [106.65014500000007, 10.973026000000061], [106.65016800000006, 10.973070000000064], [106.65018200000009, 10.973095000000058], [106.65018900000007, 10.973107000000027], [106.65020600000008, 10.973138000000063], [106.65022100000004, 10.973166000000049], [106.65023400000007, 10.973197000000027], [106.65024300000005, 10.973242000000027], [106.65025400000007, 10.973314000000073], [106.65026600000004, 10.973431000000062], [106.65027800000007, 10.973584000000074], [106.65028800000005, 10.97373600000003], [106.65029300000003, 10.973879000000068], [106.65029000000004, 10.973975000000053], [106.65027900000007, 10.974037000000067], [106.65025700000007, 10.97413400000005], [106.65022800000008, 10.974272000000042], [106.65021200000007, 10.97438500000004], [106.65020900000007, 10.974466000000064], [106.65020500000008, 10.974550000000022], [106.65018600000008, 10.974667000000068], [106.65015600000004, 10.974811000000045], [106.65013200000004, 10.974921000000052], [106.65011600000008, 10.974992000000043], [106.65009900000007, 10.97506500000003], [106.65007700000007, 10.975158000000022], [106.65005100000008, 10.975268000000028], [106.65002700000008, 10.975371000000052], [106.65000600000008, 10.975489000000039], [106.64999500000005, 10.975541000000021], [106.64998900000006, 10.97559700000005], [106.64997600000004, 10.97565700000007], [106.64996500000007, 10.975677000000076], [106.64994300000006, 10.975718000000029], [106.64991600000008, 10.97579200000007], [106.64991400000008, 10.975797000000057], [106.64992300000006, 10.975865000000056], [106.64992700000005, 10.97589000000005], [106.64994500000006, 10.975964000000033], [106.64994600000006, 10.976008000000036], [106.64993600000008, 10.97605900000002], [106.64991700000007, 10.976139000000046], [106.64989600000007, 10.976225000000056], [106.64987300000007, 10.976309000000072], [106.64984900000007, 10.97638100000006], [106.64981600000004, 10.976461000000029], [106.64977300000004, 10.976576000000023], [106.64975100000004, 10.976646000000073], [106.64973200000009, 10.97670400000004], [106.64970500000004, 10.976780000000076], [106.64968800000008, 10.97681300000005], [106.64967200000007, 10.976838000000043], [106.64965500000005, 10.976865000000032], [106.64963900000004, 10.976896000000067], [106.64962500000007, 10.976935000000026], [106.64961000000005, 10.976990000000058], [106.64958400000006, 10.977086000000043], [106.64954900000004, 10.97721000000007], [106.64952000000005, 10.977298000000076], [106.64949700000005, 10.977352000000053], [106.64947300000006, 10.977408000000025], [106.64944800000006, 10.977473000000032], [106.64942100000007, 10.97755600000005], [106.64939300000009, 10.97765400000003], [106.64937100000009, 10.97773600000005], [106.64937000000003, 10.977737000000047], [106.64935300000008, 10.977803000000051], [106.64933100000007, 10.97787500000004], [106.64930000000004, 10.97796100000005], [106.64926600000007, 10.978054000000043], [106.64923400000004, 10.978138000000058], [106.64920200000006, 10.978216000000032], [106.64917000000008, 10.978314000000069], [106.64913900000005, 10.978432000000055], [106.64911500000005, 10.978547000000049], [106.64909100000006, 10.978661000000045], [106.64905900000008, 10.978785000000073], [106.64902700000005, 10.978901000000064], [106.64900300000005, 10.978984000000025], [106.64898100000005, 10.979061000000058], [106.64894900000007, 10.979165000000023], [106.64891100000006, 10.979288000000054], [106.64887700000008, 10.979392000000075], [106.64885000000004, 10.979468000000054], [106.64882500000004, 10.979547000000025], [106.64880500000004, 10.97961900000007], [106.64875100000006, 10.979802000000063], [106.64865700000007, 10.979953000000023], [106.64860000000004, 10.98004000000003], [106.64859800000005, 10.980042000000026], [106.64848800000004, 10.980175000000031], [106.64836500000007, 10.980308000000036], [106.64826000000005, 10.98041100000006], [106.64817000000005, 10.980482000000052], [106.64808800000009, 10.980538000000024], [106.64801200000005, 10.980588000000068], [106.64794000000006, 10.980636000000061], [106.64787900000005, 10.980673000000024], [106.64783900000003, 10.980696000000023], [106.64781200000004, 10.980710000000045], [106.64779800000008, 10.980718000000024], [106.64778600000005, 10.980725000000064], [106.64774100000005, 10.98074900000006], [106.64767500000005, 10.98078700000002], [106.64760600000005, 10.980825000000038], [106.64752700000008, 10.980864000000054], [106.64742200000006, 10.980914000000041], [106.64730400000008, 10.980969000000073], [106.64719700000006, 10.981016000000068], [106.64712200000008, 10.981047000000046], [106.64706900000004, 10.981067000000053], [106.64701800000006, 10.981085000000064], [106.64695400000005, 10.981104000000073], [106.64686900000004, 10.981125000000077], [106.64677200000006, 10.981145000000026], [106.64667000000009, 10.98116600000003], [106.64655800000008, 10.981184000000042], [106.64644400000009, 10.981200000000058], [106.64635100000004, 10.981208000000038], [106.64632100000006, 10.981210000000033], [106.64626000000004, 10.981216000000074], [106.64615100000009, 10.98122600000005], [106.64605500000005, 10.981231000000037], [106.64598100000006, 10.981229000000042], [106.64592600000009, 10.981228000000044], [106.64588800000007, 10.981227000000047], [106.64585200000005, 10.98122600000005], [106.64581100000004, 10.981223000000057], [106.64576200000005, 10.981219000000067], [106.64571900000004, 10.981216000000074], [106.64567300000004, 10.981213000000025], [106.64562300000006, 10.981213000000025], [106.64557000000008, 10.981215000000077], [106.64551700000004, 10.981219000000067], [106.64547100000004, 10.98122200000006], [106.64542900000004, 10.981224000000054], [106.64530200000007, 10.981221000000062], [106.64524800000004, 10.981219000000067], [106.64511900000008, 10.981208000000038], [106.64505900000006, 10.981198000000063], [106.64499000000006, 10.981185000000039], [106.64491900000007, 10.981172000000072], [106.64485200000007, 10.981161000000043], [106.64479300000005, 10.981152000000066], [106.64474500000006, 10.981146000000024], [106.64469600000007, 10.981139000000042], [106.64463700000005, 10.981133000000057], [106.64457400000003, 10.98112800000007], [106.64450900000008, 10.981122000000028], [106.64443800000004, 10.981116000000043], [106.64433600000007, 10.981103000000076], [106.64419000000004, 10.981082000000072], [106.64401900000007, 10.981057000000021], [106.64384700000005, 10.981032000000027], [106.64369100000005, 10.981010000000026], [106.64357900000005, 10.980993000000069], [106.64351600000003, 10.980984000000035], [106.64347200000009, 10.980977000000053], [106.64342600000003, 10.980969000000073], [106.64337400000005, 10.980956000000049], [106.64336800000007, 10.980954000000054], [106.64336300000008, 10.981092000000046], [106.64335600000004, 10.98128900000006], [106.64335400000004, 10.981336000000056], [106.64335400000004, 10.981339000000048], [106.64332500000006, 10.981810000000053], [106.64332000000007, 10.981896000000063], [106.64331100000004, 10.982043000000033], [106.64328200000006, 10.982511000000045], [106.64327412577305, 10.982645518045231], [106.64330240500004, 10.980929951000064], [106.64234266400007, 10.980526389000033], [106.64138564400008, 10.979933447000064], [106.64003465500008, 10.979096414000026], [106.63816960400004, 10.977926419000028], [106.63690759100007, 10.97760543000004], [106.63690304200009, 10.97760574800003], [106.63487364700006, 10.977747417000046], [106.63395261700003, 10.977965453000024], [106.63125565300004, 10.978604436000069], [106.62792363000005, 10.979478492000055], [106.62665668300008, 10.97988944900004], [106.62531748300006, 10.980878827000026], [106.62505669900008, 10.981071490000033], [106.62459826600008, 10.981715768000072], [106.62370972600007, 10.982964518000074], [106.62194972700007, 10.984766506000028], [106.62074168600009, 10.985819561000028], [106.61871070500007, 10.986947561000022], [106.61770438400004, 10.987654054000075], [106.61707975000007, 10.988092582000036], [106.61659678700005, 10.988728562000063], [106.61611374900008, 10.989365535000047], [106.61581180300004, 10.990896530000043], [106.61598680700007, 10.992444523000074], [106.61641675500005, 10.993629594000026], [106.61667575400008, 10.994036526000059], [106.61729649700004, 10.995008670000061], [106.61765078200006, 10.995563516000061], [106.61788869300005, 10.995983327000033], [106.61963880700006, 10.999071521000076], [106.62094300300004, 11.001736334000043], [106.62101047000004, 11.001874186000066], [106.62191016200006, 11.00175703900004], [106.62252051300004, 11.00178851000004], [106.62342078200004, 11.002669705000073], [106.62386328700006, 11.003026379000062], [106.62403113300007, 11.003099813000063], [106.62414557400007, 11.003120792000061], [106.62453467300008, 11.003075971000044], [106.62538916600005, 11.002786054000069], [106.62544257100006, 11.002167118000045], [106.62550360600005, 11.00197924500003], [106.62580878200004, 11.001544369000044], [106.62651831600004, 11.000974072000076], [106.62678534500009, 11.000694645000067], [106.62706000400004, 11.000141515000053], [106.62723548000008, 10.999642742000049], [106.62734229100005, 10.999167812000053], [106.62743384300006, 10.999041927000064], [106.62766272500005, 10.998876942000038], [106.62844855300006, 10.998513592000052], [106.62868506400008, 10.99831236700004], [106.62903601600004, 10.998179806000053], [106.62959296300005, 10.997761143000048], [106.62998206100008, 10.997628582000061], [106.63052374800009, 10.997615231000054], [106.63087470100004, 10.997250927000039], [106.63124091100008, 10.996665371000063], [106.63156134600007, 10.996616734000042], [106.63188178000007, 10.996725452000021], [106.63198859200008, 10.996825588000036], [106.63246924400005, 10.997821224000063], [106.63307959500008, 10.998505962000024], [106.63359076500006, 10.998939884000038], [106.63365943000008, 10.999209773000075], [106.63367468800004, 10.999610317000077], [106.63373572400008, 10.999771488000022], [106.63395697700008, 11.000070942000036], [106.63426215100009, 11.000258816000041], [106.63467414000007, 11.000252140000043], [106.63492590900006, 11.00017107800005], [106.63491828000008, 10.999942196000063], [106.63496405700005, 10.99981058800006], [106.63516242100008, 10.999590290000071], [106.63528449000006, 10.999535931000025], [106.63541419000006, 10.999547375000077], [106.63564307200005, 10.999663723000026], [106.63581091900005, 10.999952686000029], [106.63588721200006, 11.00022639100007], [106.63599402400007, 11.000355137000042], [106.63618476000005, 11.000417126000059], [106.63676459300007, 11.000493420000055], [106.63698584600007, 11.000460041000053], [106.63723761500006, 11.000362766000023], [106.63739020400004, 11.00024165000002], [106.63753516200006, 10.99995459400003], [106.63762671500007, 10.999893559000043], [106.63844306100003, 10.999727619000055], [106.63888556400008, 10.999544514000036], [106.64003760400004, 10.999213589000021], [106.64015967400007, 10.999116314000048], [106.64058692000003, 10.998443020000025], [106.64073950700003, 10.998321902000043], [106.64090735400003, 10.998285664000036], [106.64116675300005, 10.998328579000031], [106.64167662000006, 10.998557515000073], [106.64174658800005, 10.998588931000029], [106.64186102800005, 10.998677623000049], [106.64208228100006, 10.999008549000052], [106.64231879300007, 10.999111545000062], [106.64252478700007, 10.99910868400002], [106.64256293400007, 10.999137295000025], [106.64269263300008, 10.999487292000026], [106.64282233200004, 10.999705684000048], [106.64276892700008, 11.000346554000032], [106.64271552100007, 11.000457179000023], [106.64251715700004, 11.000669849000076], [106.64250189800003, 11.000794781000025], [106.64264685700005, 11.001330745000075], [106.64281470400005, 11.00163496700003], [106.64299017900004, 11.00194014300007], [106.64337927900004, 11.00234736300007], [106.64350134900008, 11.003102672000068], [106.64353949600007, 11.00316752200007], [106.64381415400004, 11.003308665000077], [106.64385230100004, 11.003700626000068], [106.64442450600006, 11.004280460000075], [106.64466101700003, 11.004468333000034], [106.64525611000005, 11.004866969000034], [106.64562232100008, 11.005045306000056], [106.64582831400008, 11.004441631000077], [106.64636689000008, 11.002405140000064], [106.64648908900006, 11.001894408000055], [106.64696509400005, 10.999635112000021], [106.64709479400005, 10.999266040000066], [106.64717880500007, 10.999110853000047], [106.64720923400006, 10.999036204000049], [106.64726233400006, 10.998956554000074], [106.64736945200008, 10.998758685000041], [106.64772803300008, 10.998258006000071], [106.64779801101758, 10.998183654700409], [106.64780400000006, 10.998194000000069], [106.64825900000005, 10.99774700000006], [106.64834515580206, 10.997661812240771], [106.64840163880328, 10.997612572073683], [106.64877200000006, 10.997292000000073]], [[106.64313300000003, 10.984540000000038], [106.6430113286764, 10.984805429480023], [106.64316925114998, 10.98439150971287], [106.64313300000003, 10.984540000000038]], [[106.64323000000007, 10.983979000000033], [106.64322500000009, 10.984165000000075], [106.6432152384517, 10.984204534271006], [106.64323189195044, 10.983870275919074], [106.64323000000007, 10.983979000000033]]]]}}]}