{"type": "FeatureCollection", "features": [{"type": "Feature", "properties": {"name": "Trường Tiểu học Nguyễn Du", "nhom": "Trường học"}, "geometry": {"type": "Point", "coordinates": [106.654509642732, 10.981022355735462]}}, {"type": "Feature", "properties": {"name": "Công viên Ngã sáu Thủ Dầu Một", "nhom": "Khu vực công cộng"}, "geometry": {"type": "Point", "coordinates": [106.65424695506098, 10.98055431890238]}}, {"type": "Feature", "properties": {"name": "Chợ Thủ Dầu Một", "nhom": "Chợ"}, "geometry": {"type": "Point", "coordinates": [106.6512902895522, 10.97732289849217]}}, {"type": "Feature", "properties": {"name": "Chợ cá", "nhom": "Chợ"}, "geometry": {"type": "Point", "coordinates": [106.65118595287835, 10.97859584577218]}}, {"type": "Feature", "properties": {"name": "Citimart", "nhom": "Siêu thị"}, "geometry": {"type": "Point", "coordinates": [106.65600943656578, 10.981255574481931]}}, {"type": "Feature", "properties": {"name": "Trường Mẫu giáo Măng Non", "nhom": "Trường học (mầm non)"}, "geometry": {"type": "Point", "coordinates": [106.65514647849938, 10.980351091410176]}}, {"type": "Feature", "properties": {"name": "Trường Trung học phổ thông Phú Cường", "nhom": "Trường học"}, "geometry": {"type": "Point", "coordinates": [106.65689079319797, 10.978982702376515]}}, {"type": "Feature", "properties": {"name": "Công viên Phú Cường", "nhom": "Khu vực công cộng"}, "geometry": {"type": "Point", "coordinates": [106.65663121518209, 10.978427913963497]}}, {"type": "Feature", "properties": {"name": "Bệnh viện Y học cổ truyền Bình Dương", "nhom": "Y tế"}, "geometry": {"type": "Point", "coordinates": [106.6578171681214, 10.980876970046962]}}, {"type": "Feature", "properties": {"name": "UBND Thành phố Thủ Dầu Một", "nhom": "Khu vực hành chính"}, "geometry": {"type": "Point", "coordinates": [106.66506914590488, 10.985804799141413]}}, {"type": "Feature", "properties": {"name": "BIDV Bình Dương", "nhom": "Thương mại - dịch vụ"}, "geometry": {"type": "Point", "coordinates": [106.66477329219659, 10.986596468359124]}}, {"type": "Feature", "properties": {"name": "Khu vực công cộng", "nhom": "Khu vực công cộng"}, "geometry": {"type": "Point", "coordinates": [106.67196759119277, 10.970075631335856]}}, {"type": "Feature", "properties": {"name": "Khu vực công cộng", "nhom": "Khu vực công cộng"}, "geometry": {"type": "Point", "coordinates": [106.67329429732916, 10.96990683146866]}}, {"type": "Feature", "properties": {"name": "Khu vực công cộng", "nhom": "Khu vực công cộng"}, "geometry": {"type": "Point", "coordinates": [106.6728646243517, 10.968954127218879]}}, {"type": "Feature", "properties": {"name": "Co.opmart Bình Dương", "nhom": "Siêu thị"}, "geometry": {"type": "Point", "coordinates": [106.66764175673485, 10.96461553908558]}}, {"type": "Feature", "properties": {"name": "Trường Trung học cơ sở Nguyễn Thị Minh Khai", "nhom": "Trường học"}, "geometry": {"type": "Point", "coordinates": [106.6711555505181, 10.959765115856944]}}, {"type": "Feature", "properties": {"name": "Trường Trung học cơ sở Chánh Nghĩa", "nhom": "Trường học"}, "geometry": {"type": "Point", "coordinates": [106.65670773776074, 10.961273071107431]}}, {"type": "Feature", "properties": {"name": "Khu vực công cộng", "nhom": "Khu vực công cộng"}, "geometry": {"type": "Point", "coordinates": [106.64835879877472, 10.985273880419625]}}, {"type": "Feature", "properties": {"name": "Trường Tiểu học Chánh Mỹ", "nhom": "Trường học"}, "geometry": {"type": "Point", "coordinates": [106.64049797414289, 10.987852225898617]}}, {"type": "Feature", "properties": {"name": "Trung tâm Giáo dục thường xuyên và Bồi dưỡng nghiệp vụ tỉnh Bình Dương", "nhom": "Trường học"}, "geometry": {"type": "Point", "coordinates": [106.66861974286466, 10.966997165601615]}}, {"type": "Feature", "properties": {"name": "Khu vực công cộng", "nhom": "Khu vực công cộng"}, "geometry": {"type": "Point", "coordinates": [106.66759240000002, 10.96894625]}}, {"type": "Feature", "properties": {"name": "Trường Chính trị Tỉnh Bình Dương", "nhom": "Trường học"}, "geometry": {"type": "Point", "coordinates": [106.66828032209645, 10.968862036378974]}}, {"type": "Feature", "properties": {"name": "Khu vực công cộng", "nhom": "Khu vực công cộng"}, "geometry": {"type": "Point", "coordinates": [106.67228245587066, 10.971778799576727]}}, {"type": "Feature", "properties": {"name": "Khu vực công cộng", "nhom": "Khu vực công cộng"}, "geometry": {"type": "Point", "coordinates": [106.672197295659, 10.971641421213155]}}, {"type": "Feature", "properties": {"name": "Khu vực công cộng", "nhom": "Khu vực công cộng"}, "geometry": {"type": "Point", "coordinates": [106.67206469999996, 10.971401449999997]}}, {"type": "Feature", "properties": {"name": "Khu vực công cộng", "nhom": "Khu vực công cộng"}, "geometry": {"type": "Point", "coordinates": [106.67304478794841, 10.971436333059573]}}, {"type": "Feature", "properties": {"name": "Khu vực công cộng", "nhom": "Khu vực công cộng"}, "geometry": {"type": "Point", "coordinates": [106.67282218330605, 10.970982350031667]}}, {"type": "Feature", "properties": {"name": "Trường Mầm non Hoa Hướng Dương", "nhom": "Trường học (mầm non)"}, "geometry": {"type": "Point", "coordinates": [106.64278894074998, 10.987732493649748]}}, {"type": "Feature", "properties": {"name": "Công viên nước Bình Dương", "nhom": "Khu vực công cộng"}, "geometry": {"type": "Point", "coordinates": [106.66163053415988, 10.989058198521734]}}, {"type": "Feature", "properties": {"name": "Trường Trung học phổ thông Võ Mình Đức", "nhom": "Trường học"}, "geometry": {"type": "Point", "coordinates": [106.66373493184068, 10.960683304045157]}}, {"type": "Feature", "properties": {"name": "Trường Trung học cơ sở Nguyễn Văn Cừ", "nhom": "Trường học"}, "geometry": {"type": "Point", "coordinates": [106.635667968496, 10.982229545457582]}}, {"type": "Feature", "properties": {"name": "Công viên Huỳnh Văn Cù", "nhom": "Khu vực công cộng"}, "geometry": {"type": "Point", "coordinates": [106.65535836202817, 10.992940201149985]}}, {"type": "Feature", "properties": {"name": "Trường Tiểu học Hiệp Thành 2", "nhom": "Trường học"}, "geometry": {"type": "Point", "coordinates": [106.65700360000004, 10.991849499999999]}}, {"type": "Feature", "properties": {"name": "Trường Tiểu học Bán trú Lê Hồng Phong", "nhom": "Trường học"}, "geometry": {"type": "Point", "coordinates": [106.65743356235491, 10.990866248531235]}}, {"type": "Feature", "properties": {"name": "Trường Trung học phổ thông chuyên Hùng Vương", "nhom": "Trường học"}, "geometry": {"type": "Point", "coordinates": [106.65774465821129, 10.991785200805017]}}, {"type": "Feature", "properties": {"name": "TAND thành phố Thủ Dầu Một", "nhom": "Khu vực hành chính"}, "geometry": {"type": "Point", "coordinates": [106.66631568340956, 10.981686305880794]}}, {"type": "Feature", "properties": {"name": "Trường Trung học cơ sở Chu Văn An", "nhom": "Trường học"}, "geometry": {"type": "Point", "coordinates": [106.66304347005943, 10.984616957962771]}}, {"type": "Feature", "properties": {"name": "Big C", "nhom": "Siêu thị"}, "geometry": {"type": "Point", "coordinates": [106.66436344242982, 10.98698991879963]}}, {"type": "Feature", "properties": {"name": "Thương mại - dịch vụ", "nhom": "Thương mại - dịch vụ"}, "geometry": {"type": "Point", "coordinates": [106.68745645307821, 10.963165219679386]}}, {"type": "Feature", "properties": {"name": "Metro Cash and Carry", "nhom": "Siêu thị"}, "geometry": {"type": "Point", "coordinates": [106.68708422178871, 10.962995821866272]}}, {"type": "Feature", "properties": {"name": "Ocean Bank - Chi nhánh Bình Dương", "nhom": "Thương mại - dịch vụ"}, "geometry": {"type": "Point", "coordinates": [106.669059, 10.976096499999999]}}, {"type": "Feature", "properties": {"name": "Sân vận động Gò Đậu", "nhom": "Khu vực công cộng"}, "geometry": {"type": "Point", "coordinates": [106.67197817388622, 10.970064251595101]}}, {"type": "Feature", "properties": {"name": "Khu vực công cộng", "nhom": "Khu vực công cộng"}, "geometry": {"type": "Point", "coordinates": [106.65662074151203, 10.977797795501042]}}, {"type": "Feature", "properties": {"name": "Trường tiểu học - Trung học cơ sở Pétrus Ký", "nhom": "Trường học"}, "geometry": {"type": "Point", "coordinates": [106.65157172579113, 10.99321597435218]}}, {"type": "Feature", "properties": {"name": "Khu vực công cộng", "nhom": "Khu vực công cộng"}, "geometry": {"type": "Point", "coordinates": [106.65186709190777, 10.993144236068494]}}, {"type": "Feature", "properties": {"name": "Trung tâm Y tế khu vực Thủ Dầu Một", "nhom": "Y tế"}, "geometry": {"type": "Point", "coordinates": [106.65422991559007, 10.978105345748455]}}, {"type": "Feature", "properties": {"name": "Trường Tiểu học Trần Phú", "nhom": "Trường học"}, "geometry": {"type": "Point", "coordinates": [106.66277476200864, 10.975934700139593]}}, {"type": "Feature", "properties": {"name": "Trường Mầm non Lê Thị Riêng", "nhom": "Trường học (mầm non)"}, "geometry": {"type": "Point", "coordinates": [106.66926856051496, 10.96850835519246]}}, {"type": "Feature", "properties": {"name": "Trường Tiểu học Chánh Nghĩa", "nhom": "Trường học"}, "geometry": {"type": "Point", "coordinates": [106.66337370456644, 10.962564082389546]}}, {"type": "Feature", "properties": {"name": "Trường Mầm non Tuổi Xanh", "nhom": "Trường học (mầm non)"}, "geometry": {"type": "Point", "coordinates": [106.6542242643827, 10.972767389049856]}}, {"type": "Feature", "properties": {"name": "Trường Tiểu học Nguyễn Trãi", "nhom": "Trường học"}, "geometry": {"type": "Point", "coordinates": [106.65369659806211, 10.97570021220668]}}, {"type": "Feature", "properties": {"name": "Công viên Bạch Đằng", "nhom": "Khu vực công cộng"}, "geometry": {"type": "Point", "coordinates": [106.64759790694222, 10.981130994688089]}}, {"type": "Feature", "properties": {"name": "Trường Cao đẳng Mỹ thuật Bình Dương", "nhom": "Trường học"}, "geometry": {"type": "Point", "coordinates": [106.64893577067497, 10.981795777001583]}}, {"type": "Feature", "properties": {"name": "Trường Trung học cơ sở Nguyễn Thị Minh Khai", "nhom": "Trường học"}, "geometry": {"type": "Point", "coordinates": [106.6712049286537, 10.96468682929323]}}, {"type": "Feature", "properties": {"name": "Trường Sĩ quan Công binh", "nhom": "Trường học"}, "geometry": {"type": "Point", "coordinates": [106.64570875112028, 10.98648846426322]}}, {"type": "Feature", "properties": {"name": "Khu vực công cộng", "nhom": "Khu vực công cộng"}, "geometry": {"type": "Point", "coordinates": [106.65791475624451, 10.990358283511439]}}, {"type": "Feature", "properties": {"name": "Nhà thờ Chánh tòa Phú Cường", "nhom": "Cơ sở tôn giáo"}, "geometry": {"type": "Point", "coordinates": [106.65412540855245, 10.981643515256346]}}, {"type": "Feature", "properties": {"name": "Chùa Hội Khánh", "nhom": "Cơ sở tôn giáo"}, "geometry": {"type": "Point", "coordinates": [106.65910552198386, 10.98156557689274]}}, {"type": "Feature", "properties": {"name": "Hội dòng Con Đức Mẹ Nam Vang", "nhom": "Cơ sở tôn giáo"}, "geometry": {"type": "Point", "coordinates": [106.65369909936854, 10.981925525861973]}}, {"type": "Feature", "properties": {"name": "Nhà thờ Bà Lụa", "nhom": "Cơ sở tôn giáo"}, "geometry": {"type": "Point", "coordinates": [106.66875113596994, 10.957966690611437]}}, {"type": "Feature", "properties": {"name": "Chùa Linh Sơn", "nhom": "Cơ sở tôn giáo"}, "geometry": {"type": "Point", "coordinates": [106.64657260344131, 10.990518918445346]}}, {"type": "Feature", "properties": {"name": "Nhà máy nước", "nhom": "Cơ sở sản xuất - dịch vụ / Kho bãi"}, "geometry": {"type": "Point", "coordinates": [106.64338675307081, 10.989296148667199]}}, {"type": "Feature", "properties": {"name": "Tổng Kho Xăng Dầu Thanh Lễ", "nhom": "Cơ sở sản xuất - dịch vụ / Kho bãi"}, "geometry": {"type": "Point", "coordinates": [106.64093816055295, 10.98196252674996]}}, {"type": "Feature", "properties": {"name": "Công ty GOMO", "nhom": "Cơ sở sản xuất - dịch vụ / Kho bãi"}, "geometry": {"type": "Point", "coordinates": [106.6345155761333, 10.98279983109536]}}, {"type": "Feature", "properties": {"name": "Công Ty GOMO", "nhom": "Cơ sở sản xuất - dịch vụ / Kho bãi"}, "geometry": {"type": "Point", "coordinates": [106.64212925128771, 10.984261108496792]}}, {"type": "Feature", "properties": {"name": "Khu dân cư", "nhom": "Khu dân cư"}, "geometry": {"type": "Point", "coordinates": [106.64230292249593, 10.986589152224145]}}, {"type": "Feature", "properties": {"name": "Khu dân cư", "nhom": "Khu dân cư"}, "geometry": {"type": "Point", "coordinates": [106.65069270817516, 10.981879212599242]}}, {"type": "Feature", "properties": {"name": "Khu dân cư", "nhom": "Khu dân cư"}, "geometry": {"type": "Point", "coordinates": [106.65229228119064, 10.98251045727217]}}, {"type": "Feature", "properties": {"name": "Khu dân cư", "nhom": "Khu dân cư"}, "geometry": {"type": "Point", "coordinates": [106.65161883366733, 10.981121600821627]}}, {"type": "Feature", "properties": {"name": "Khu dân cư", "nhom": "Khu dân cư"}, "geometry": {"type": "Point", "coordinates": [106.65112445322558, 10.977715657628924]}}, {"type": "Feature", "properties": {"name": "Khu dân cư", "nhom": "Khu dân cư"}, "geometry": {"type": "Point", "coordinates": [106.6521740540056, 10.976792425835857]}}, {"type": "Feature", "properties": {"name": "Khu dân cư", "nhom": "Khu dân cư"}, "geometry": {"type": "Point", "coordinates": [106.65203831037482, 10.975773539740105]}}, {"type": "Feature", "properties": {"name": "Khu dân cư", "nhom": "Khu dân cư"}, "geometry": {"type": "Point", "coordinates": [106.65270982081118, 10.975875825230554]}}]}