{"type": "FeatureCollection", "features": [{"type": "Feature", "properties": {"id": "baitapket_bqk", "name": "Bãi tập kết Bùi Quốc Khánh", "loai": "Bãi tập kết"}, "geometry": {"type": "Point", "coordinates": [106.654406, 10.96444]}}, {"type": "Feature", "properties": {"id": "baitapket_tqd", "name": "Bãi tập kết Thích Quảng Đức", "loai": "Bãi tập kết"}, "geometry": {"type": "Point", "coordinates": [106.6646, 10.9773792]}}, {"type": "Feature", "properties": {"id": "baidorac_cph", "name": "Bãi rác Chánh Phú Hòa", "loai": "Điểm đổ rác (Khu liên hợp XLCT Chánh Phú Hòa)"}, "geometry": {"type": "Point", "coordinates": [106.6612752, 11.1706114]}}]}