{"type": "FeatureCollection", "features": [{"type": "Feature", "properties": {"id": "dh_1", "tuyen": "Xe 1 - Chuyến 1", "ten": "Cạnh công viên Miễu Tử Trận", "gio_den": "18:15", "thoi_gian_dung_phut": 15, "gio_roi": "18:30", "do_tin_cay_vi_tri": "uoc_luong_duong", "khoang_cach_cong_trinh_gan_nhat_m": 542.3, "dat_qcvn_01_2021": true, "ban_kinh_phuc_vu_m": 300}, "geometry": {"type": "Point", "coordinates": [106.650571, 10.986824]}}, {"type": "Feature", "properties": {"id": "dh_2", "tuyen": "Xe 1 - Chuyến 1", "ten": "Trục giao chợ và UBND phường", "gio_den": "18:45", "thoi_gian_dung_phut": 15, "gio_roi": "19:00", "do_tin_cay_vi_tri": "chinh_xac_poi", "khoang_cach_cong_trinh_gan_nhat_m": null, "dat_qcvn_01_2021": false, "ban_kinh_phuc_vu_m": 300}, "geometry": {"type": "Point", "coordinates": [106.65129, 10.977323]}}, {"type": "Feature", "properties": {"id": "dh_3", "tuyen": "Xe 1 - Chuyến 1", "ten": "Cạnh trường mầm non 1/6", "gio_den": "19:15", "thoi_gian_dung_phut": 15, "gio_roi": "19:30", "do_tin_cay_vi_tri": "uoc_luong_duong", "khoang_cach_cong_trinh_gan_nhat_m": 71.3, "dat_qcvn_01_2021": true, "ban_kinh_phuc_vu_m": 300}, "geometry": {"type": "Point", "coordinates": [106.656424, 10.974795]}}, {"type": "Feature", "properties": {"id": "dh_4", "tuyen": "Xe 1 - Chuyến 2", "ten": "Cạnh công viên đường Nguyễn Văn Tiết", "gio_den": "22:45", "thoi_gian_dung_phut": 15, "gio_roi": "23:00", "do_tin_cay_vi_tri": "uoc_luong_duong", "khoang_cach_cong_trinh_gan_nhat_m": 531.8, "dat_qcvn_01_2021": true, "ban_kinh_phuc_vu_m": 300}, "geometry": {"type": "Point", "coordinates": [106.652577, 10.987335]}}, {"type": "Feature", "properties": {"id": "dh_5", "tuyen": "Xe 1 - Chuyến 2", "ten": "Cạnh trường mẫu giáo Hoa Hướng Dương", "gio_den": "23:15", "thoi_gian_dung_phut": 15, "gio_roi": "23:30", "do_tin_cay_vi_tri": "chinh_xac_poi", "khoang_cach_cong_trinh_gan_nhat_m": 0.4, "dat_qcvn_01_2021": false, "ban_kinh_phuc_vu_m": 300}, "geometry": {"type": "Point", "coordinates": [106.642789, 10.987732]}}, {"type": "Feature", "properties": {"id": "dh_6", "tuyen": "Xe 2 - Chuyến 1", "ten": "Trước THCS Phú Cường", "gio_den": "18:15", "thoi_gian_dung_phut": 15, "gio_roi": "18:30", "do_tin_cay_vi_tri": "chinh_xac_poi", "khoang_cach_cong_trinh_gan_nhat_m": 8.4, "dat_qcvn_01_2021": false, "ban_kinh_phuc_vu_m": 300}, "geometry": {"type": "Point", "coordinates": [106.656891, 10.978983]}}, {"type": "Feature", "properties": {"id": "dh_7", "tuyen": "Xe 2 - Chuyến 1", "ten": "Trước trường Lê Văn Tám", "gio_den": "18:45", "thoi_gian_dung_phut": 15, "gio_roi": "19:00", "do_tin_cay_vi_tri": "uoc_luong_duong", "khoang_cach_cong_trinh_gan_nhat_m": 127.0, "dat_qcvn_01_2021": true, "ban_kinh_phuc_vu_m": 300}, "geometry": {"type": "Point", "coordinates": [106.65353, 10.97705]}}, {"type": "Feature", "properties": {"id": "dh_8", "tuyen": "Xe 4 - Chuyến 1", "ten": "Trước bãi đất trống đường Ngô Gia Tự", "gio_den": "18:00", "thoi_gian_dung_phut": 15, "gio_roi": "18:15", "do_tin_cay_vi_tri": "uoc_luong_duong", "khoang_cach_cong_trinh_gan_nhat_m": 127.0, "dat_qcvn_01_2021": true, "ban_kinh_phuc_vu_m": 300}, "geometry": {"type": "Point", "coordinates": [106.667923, 10.974818]}}, {"type": "Feature", "properties": {"id": "dh_9", "tuyen": "Xe 6", "ten": "Cạnh nhà máy đường", "gio_den": "18:35", "thoi_gian_dung_phut": 15, "gio_roi": "18:40", "do_tin_cay_vi_tri": "uoc_luong_duong", "khoang_cach_cong_trinh_gan_nhat_m": 685.8, "dat_qcvn_01_2021": true, "ban_kinh_phuc_vu_m": 300}, "geometry": {"type": "Point", "coordinates": [106.661753, 10.953529]}}, {"type": "Feature", "properties": {"id": "dh_10", "tuyen": "Xe 6", "ten": "Trường mầm non (Phú Thọ)", "gio_den": "19:05", "thoi_gian_dung_phut": 15, "gio_roi": "19:20", "do_tin_cay_vi_tri": "uoc_luong_duong", "khoang_cach_cong_trinh_gan_nhat_m": 163.2, "dat_qcvn_01_2021": true, "ban_kinh_phuc_vu_m": 300}, "geometry": {"type": "Point", "coordinates": [106.667228, 10.957507]}}, {"type": "Feature", "properties": {"id": "dh_11", "tuyen": "Xe 6", "ten": "Trường tiểu học Phú Thọ", "gio_den": "19:25", "thoi_gian_dung_phut": 15, "gio_roi": "19:40", "do_tin_cay_vi_tri": "uoc_luong_duong", "khoang_cach_cong_trinh_gan_nhat_m": 23.4, "dat_qcvn_01_2021": true, "ban_kinh_phuc_vu_m": 300}, "geometry": {"type": "Point", "coordinates": [106.684263, 10.949022]}}, {"type": "Feature", "properties": {"id": "dh_12", "tuyen": "Xe 8", "ten": "Trước bãi đất trống đường Trần Bình Trọng", "gio_den": "19:40", "thoi_gian_dung_phut": 15, "gio_roi": "19:55", "do_tin_cay_vi_tri": "uoc_luong_duong", "khoang_cach_cong_trinh_gan_nhat_m": 131.9, "dat_qcvn_01_2021": true, "ban_kinh_phuc_vu_m": 300}, "geometry": {"type": "Point", "coordinates": [106.674909, 10.966431]}}, {"type": "Feature", "properties": {"id": "dh_13", "tuyen": "Xe 8", "ten": "Bên cạnh sân banh Gò Đậu", "gio_den": "20:10", "thoi_gian_dung_phut": 15, "gio_roi": "20:25", "do_tin_cay_vi_tri": "chinh_xac_poi", "khoang_cach_cong_trinh_gan_nhat_m": 52.7, "dat_qcvn_01_2021": true, "ban_kinh_phuc_vu_m": 300}, "geometry": {"type": "Point", "coordinates": [106.671978, 10.970064]}}]}