{"type": "FeatureCollection", "features": [{"type": "Feature", "properties": {"ma_xa": "25756", "ten_xa": "Chánh Nghĩa", "ten_xa_en": "Chanh Nghia"}, "geometry": {"type": "Polygon", "coordinates": [[[106.66844183900008, 10.978093514000022], [106.67050940500008, 10.97392405000005], [106.67069250900005, 10.973583588000054], [106.67099005700004, 10.973173509000048], [106.67138678500004, 10.972766290000038], [106.67147651100004, 10.972692266000024], [106.67152411300003, 10.972645173000046], [106.67009741600003, 10.96919573300005], [106.66855627900009, 10.965323814000044], [106.66845709700004, 10.96514643200004], [106.66307837300008, 10.957953820000057], [106.66291052700007, 10.957643876000077], [106.66249091000009, 10.956327805000058], [106.66217047600009, 10.955856690000076], [106.65956885100007, 10.953678498000045], [106.65956885100007, 10.953489671000057], [106.65826422500004, 10.952198396000028], [106.65813452500004, 10.952159295000058], [106.65784460800006, 10.95222319100003], [106.65775305600005, 10.952324281000074], [106.65762335500006, 10.95300615800005], [106.65754706100006, 10.953324685000041], [106.65750891400006, 10.953362832000039], [106.65712744500007, 10.953147302000048], [106.65673834600005, 10.95317209700005], [106.65629584200008, 10.953315148000058], [106.655922, 10.953322778000029], [106.65508276800006, 10.953223596000043], [106.65431982800004, 10.953075776000048], [106.65394598700004, 10.953106294000065], [106.65204914400005, 10.952744945000063], [106.65192066100008, 10.953571331000035], [106.65180747600004, 10.954299324000033], [106.65166438500006, 10.954825926000069], [106.65099445700008, 10.95729136600005], [106.65029348100006, 10.959508338000035], [106.65010744100005, 10.960010023000052], [106.64938050400008, 10.961970318000056], [106.64882650500005, 10.96433531200006], [106.64878316600004, 10.96536863700004], [106.64875266100006, 10.966095965000022], [106.64872450300004, 10.966767321000077], [106.64887150500005, 10.969214329000067], [106.64932253200004, 10.970828381000047], [106.64938512900005, 10.970950498000036], [106.65003755900005, 10.972223308000025], [106.65018564200005, 10.97297829300004], [106.65027624900006, 10.972954164000043], [106.65156561700007, 10.972844492000036], [106.65154273000007, 10.973730455000066], [106.65149695300005, 10.974034677000077], [106.65306860900006, 10.974375139000074], [106.65293128000008, 10.974630724000065], [106.65287787300008, 10.974851976000025], [106.65299231400007, 10.975341211000057], [106.65341956000009, 10.975180040000055], [106.65368659000006, 10.97513712500006], [106.65409857700007, 10.975138079000033], [106.65421301800006, 10.97520769700003], [106.65440375300005, 10.975680719000025], [106.65540320400004, 10.975226769000074], [106.65650946500006, 10.974781404000055], [106.65667731100007, 10.974766146000036], [106.65718085300006, 10.974896799000021], [106.65847021900004, 10.97506273700003], [106.65966040500007, 10.973183046000031], [106.65987402800005, 10.972948442000074], [106.65962988800004, 10.975347887000055], [106.65948492900009, 10.977732073000027], [106.65954596500006, 10.977964769000039], [106.65988928800004, 10.97851599300003], [106.66067511500006, 10.978423487000043], [106.66107184400005, 10.978320489000055], [106.66166693600007, 10.978007684000033], [106.66272742200005, 10.977350602000058], [106.66316229800009, 10.97714460800006], [106.66360480200007, 10.976996789000054], [106.66384972900005, 10.976979414000027], [106.66390183100003, 10.976981961000035], [106.66529852800005, 10.977474580000035], [106.66686255300004, 10.977968583000063], [106.66814870200005, 10.978706228000021], [106.66844183900008, 10.978093514000022]]]}}, {"type": "Feature", "properties": {"ma_xa": "25747", "ten_xa": "Phú Cường", "ten_xa_en": "Phu Cuong"}, "geometry": {"type": "Polygon", "coordinates": [[[106.65102393100005, 10.99142302100006], [106.65103919100005, 10.990211855000041], [106.65106691900007, 10.99009667200005], [106.65106970800008, 10.990010631000075], [106.65110800700006, 10.989925999000036], [106.65113837200005, 10.989799869000024], [106.65141740400009, 10.989242310000066], [106.65151984200008, 10.98901594800003], [106.65160283700004, 10.988871779000021], [106.65166480100004, 10.988747965000073], [106.65176011200003, 10.988598582000066], [106.65196234800004, 10.988247287000036], [106.65255744000007, 10.987348925000049], [106.65262610400003, 10.987131488000045], [106.65263373300007, 10.986770998000054], [106.65248877500005, 10.986228357000073], [106.65245062800005, 10.985942255000055], [106.65245825700003, 10.985511195000072], [106.65259558600007, 10.984767329000022], [106.65262610400003, 10.984156978000044], [106.65384680700004, 10.984329592000051], [106.65408331800006, 10.984488855000052], [106.65465552300009, 10.984480272000042], [106.65455634100005, 10.984087358000068], [106.65450293500004, 10.983656298000028], [106.65454871000009, 10.982868563000068], [106.65460211700008, 10.982649219000052], [106.65511328600007, 10.981630693000056], [106.65569312100007, 10.98165072200004], [106.65708930000005, 10.981533419000073], [106.65730292300009, 10.981570612000041], [106.65754706300004, 10.981674562000023], [106.65779120400003, 10.98188151000005], [106.65807349200009, 10.982209574000024], [106.65834052000008, 10.98235930100003], [106.65872199000006, 10.98239172500007], [106.65966040600006, 10.982330690000026], [106.66080481500006, 10.982359300000041], [106.66103369700005, 10.982396494000056], [106.66135413100005, 10.982521425000073], [106.66217047700007, 10.983246218000033], [106.66270453400006, 10.983537088000048], [106.66308600400004, 10.983525644000053], [106.66398627200005, 10.983634363000021], [106.66555029800008, 10.984011063000025], [106.66621405600006, 10.984091172000035], [106.66659552600004, 10.982397448000029], [106.66723639500009, 10.980613122000022], [106.66814870200005, 10.978706228000021], [106.66686255300004, 10.977968583000063], [106.66529852800005, 10.977474580000035], [106.66390183100003, 10.976981961000035], [106.66384972900005, 10.976979414000027], [106.66360480200007, 10.976996789000054], [106.66316229800009, 10.97714460800006], [106.66272742200005, 10.977350602000058], [106.66166693600007, 10.978007684000033], [106.66107184400005, 10.978320489000055], [106.66067511500006, 10.978423487000043], [106.65988928800004, 10.97851599300003], [106.65954596500006, 10.977964769000039], [106.65948492900009, 10.977732073000027], [106.65962988800004, 10.975347887000055], [106.65987402800005, 10.972948442000074], [106.65966040500007, 10.973183046000031], [106.65847021900004, 10.97506273700003], [106.65718085300006, 10.974896799000021], [106.65667731100007, 10.974766146000036], [106.65650946500006, 10.974781404000055], [106.65540320400004, 10.975226769000074], [106.65440375300005, 10.975680719000025], [106.65421301800006, 10.97520769700003], [106.65409857700007, 10.975138079000033], [106.65368659000006, 10.97513712500006], [106.65341956000009, 10.975180040000055], [106.65299231400007, 10.975341211000057], [106.65287787300008, 10.974851976000025], [106.65293128000008, 10.974630724000065], [106.65306860900006, 10.974375139000074], [106.65149695300005, 10.974034677000077], [106.65154273000007, 10.973730455000066], [106.65156561700007, 10.972844492000036], [106.65027624900006, 10.972954164000043], [106.65018564200005, 10.97297829300004], [106.65031157600004, 10.973620350000033], [106.65018724800007, 10.974339306000047], [106.64992560900004, 10.975852304000057], [106.64894073700003, 10.979308227000047], [106.64892759200006, 10.979354357000034], [106.64838962800007, 10.980816362000041], [106.64734563100006, 10.981373392000023], [106.64601960700008, 10.981555411000045], [106.64601507600008, 10.981554656000071], [106.64398359500007, 10.981216386000028], [106.64367259500006, 10.981085613000062], [106.64330240500004, 10.980929951000064], [106.64326483700006, 10.983209024000075], [106.64321143100005, 10.984280955000031], [106.64273077900003, 10.98554075900006], [106.64263922700007, 10.986064326000076], [106.64266974300006, 10.986422908000065], [106.64274603800004, 10.986695659000077], [106.64289862600003, 10.987026584000034], [106.64306647300003, 10.987248790000024], [106.64382178300008, 10.988005053000052], [106.64460761000004, 10.988995921000026], [106.64505011500006, 10.989776027000062], [106.64519847900004, 10.989874461000056], [106.64540869700005, 10.989959132000024], [106.64623267100006, 10.990079295000044], [106.64715582900004, 10.990134608000062], [106.64804083800004, 10.990599048000036], [106.64825446100008, 10.990617167000039], [106.64899451200006, 10.990515123000023], [106.64914710100004, 10.990551364000055], [106.64935309400005, 10.99068201700004], [106.64980322800005, 10.991098772000043], [106.65002448000007, 10.991251361000025], [106.65100104300006, 10.991489779000062], [106.65102393100005, 10.99142302100006]]]}}, {"type": "Feature", "properties": {"ma_xa": "25753", "ten_xa": "Phú Thọ", "ten_xa_en": "Phu Tho"}, "geometry": {"type": "Polygon", "coordinates": [[[106.68782812900008, 10.962440857000047], [106.68691260300005, 10.961569198000063], [106.68634802800005, 10.961105713000052], [106.68615729300006, 10.960858711000071], [106.68600470400008, 10.960416205000058], [106.68586737600003, 10.960237869000025], [106.68253333000007, 10.957899460000021], [106.68173224300006, 10.957275756000058], [106.67996985400003, 10.961449989000073], [106.67913824900006, 10.961102852000067], [106.67891699800003, 10.962087997000026], [106.67607886200005, 10.960556397000062], [106.66874701400008, 10.95619238300003], [106.66754156800005, 10.955562005000047], [106.66756445600004, 10.954870590000041], [106.66781622800005, 10.954408059000059], [106.66969305900005, 10.953074822000076], [106.66835028500009, 10.95220030300004], [106.66829687800004, 10.952110657000048], [106.66803747900008, 10.950693497000032], [106.66798407300007, 10.94957769900003], [106.66829687800004, 10.948552498000026], [106.66844946700007, 10.948297867000065], [106.66870123700005, 10.94804418900003], [106.66925055300004, 10.947623619000069], [106.66954047000007, 10.947456726000041], [106.66975409300005, 10.947168716000022], [106.66999060400008, 10.947054275000028], [106.67014319200007, 10.94692839000004], [106.66973120500006, 10.946401008000066], [106.66969478600004, 10.946317087000068], [106.66961780000008, 10.94613968300007], [106.66955572800003, 10.94599665100003], [106.66949469300005, 10.945731529000057], [106.66871649500007, 10.944664368000076], [106.66822058400004, 10.943905243000074], [106.66815850400008, 10.943764788000067], [106.66812747600005, 10.94371476300006], [106.66777808000006, 10.94334352900006], [106.66751105100008, 10.943256744000053], [106.66716772800004, 10.943218597000055], [106.66700263300004, 10.943292064000048], [106.66696949600004, 10.943321696000055], [106.66684849200004, 10.943615803000057], [106.66671606300008, 10.944031822000056], [106.66667181700006, 10.944215187000054], [106.66664886500007, 10.944242921000068], [106.66664130000004, 10.944266686000049], [106.66661170200007, 10.94428782600005], [106.66658026500005, 10.944325813000034], [106.66652833700005, 10.944347374000074], [106.66648108200008, 10.944381126000053], [106.66636664200007, 10.944414505000054], [106.66616064800007, 10.944377312000029], [106.66609198300006, 10.944316276000052], [106.66592413700005, 10.94393289900006], [106.66555792600008, 10.943695434000063], [106.66520697400006, 10.943549522000069], [106.66508490300004, 10.943641075000073], [106.66497046200004, 10.943764099000077], [106.66481787400005, 10.94406927500006], [106.66480261600009, 10.944446930000026], [106.66471869200006, 10.94477785500004], [106.66426855800006, 10.94567812400004], [106.66399390000004, 10.946138748000067], [106.66370398300006, 10.946509728000024], [106.66356665400008, 10.946611770000061], [106.66323859000005, 10.946619400000031], [106.66281897300007, 10.946482071000048], [106.66159064100003, 10.946320901000036], [106.66123205900004, 10.946229348000031], [106.66102606600003, 10.946126351000032], [106.66096537000004, 10.94607155600005], [106.66088873600006, 10.946026215000074], [106.66068274300005, 10.945816406000063], [106.66058356000008, 10.94566286600002], [106.66048437800004, 10.945306190000053], [106.66047167500005, 10.945229310000059], [106.66044623100004, 10.945130715000062], [106.66039282600008, 10.944752107000056], [106.66022073700009, 10.944361547000028], [106.65984350900004, 10.943726907000041], [106.65921026900008, 10.942987809000044], [106.65893561100006, 10.942573914000036], [106.65864569400009, 10.941903480000065], [106.65850073600006, 10.941356072000076], [106.65844732900007, 10.940857300000062], [106.65803534200006, 10.94002569600002], [106.65768439000004, 10.93974722400003], [106.65746313800008, 10.939670929000044], [106.65733343800008, 10.939672836000057], [106.65692908100004, 10.939882644000022], [106.65644079800006, 10.94025076400004], [106.65627295300004, 10.940335640000058], [106.65619548100005, 10.940358089000028], [106.65608984600004, 10.940404305000072], [106.65593725900004, 10.94043291500003], [106.65547949600005, 10.940381417000026], [106.65505224900005, 10.940230737000036], [106.65451056200004, 10.940125831000046], [106.65406805800006, 10.940214524000055], [106.65373999400003, 10.940389047000053], [106.65299994100008, 10.940949807000038], [106.65291601900009, 10.94111097700005], [106.65274817200009, 10.94183672400004], [106.65258032600008, 10.942072282000026], [106.65247351400006, 10.942154298000048], [106.65132147600008, 10.942471871000066], [106.65190893900007, 10.944759736000037], [106.65223700300004, 10.947332749000054], [106.65226440200007, 10.947985534000054], [106.65228239400005, 10.948108343000058], [106.65236442700007, 10.949706306000053], [106.65224544700004, 10.951482342000077], [106.65204914400005, 10.952744945000063], [106.65394598700004, 10.953106294000065], [106.65431982800004, 10.953075776000048], [106.65508276800006, 10.953223596000043], [106.655922, 10.953322778000029], [106.65629584200008, 10.953315148000058], [106.65673834600005, 10.95317209700005], [106.65712744500007, 10.953147302000048], [106.65750891400006, 10.953362832000039], [106.65754706100006, 10.953324685000041], [106.65762335500006, 10.95300615800005], [106.65775305600005, 10.952324281000074], [106.65784460800006, 10.95222319100003], [106.65813452500004, 10.952159295000058], [106.65826422500004, 10.952198396000028], [106.65956885100007, 10.953489671000057], [106.65956885100007, 10.953678498000045], [106.66217047600009, 10.955856690000076], [106.66249091000009, 10.956327805000058], [106.66291052700007, 10.957643876000077], [106.66307837300008, 10.957953820000057], [106.66845709700004, 10.96514643200004], [106.66855627900009, 10.965323814000044], [106.67009741600003, 10.96919573300005], [106.67152411300003, 10.972645173000046], [106.67165381400008, 10.972545991000061], [106.67224127700007, 10.972221742000045], [106.67533118200004, 10.970708260000038], [106.68146521500006, 10.96727407800006], [106.68923193800003, 10.96360720000007], [106.68907935100003, 10.96339929900006], [106.68782812900008, 10.962440857000047]]]}}]}