{"type": "FeatureCollection", "features": [{"type": "Feature", "properties": {"xe": "Xe 1", "chuyen": "Chuyến 1", "khu_vuc": "Phú Cường", "gio": "18:00–22:00", "mau": "#e6194B", "diem_thu_gom": ["Công viên (đường Bạch Đằng)", "Thương mại - dịch vụ (giao Lý Thường Kiệt - Nguyễn Tri Phương)", "Trường học (đường Văn Công Khai)"], "streets": ["Phạm Ngũ Lão", "Bác sĩ Yersin", "Quang Trung", "Lê Lợi", "Trần Hưng Đạo", "Nguyễn Đình Chiểu", "Cách Mạng Tháng Tám", "Nguyễn Trãi", "Hùng Vương", "Bà Triệu", "Trừ Văn Thố", "Văn Công Khai", "Cầu Bến Cỏ", "Văn Công Khai", "Bàu Bàng", "Đường Nguyễn Tri Phương", "Bạch Đằng", "Cầu Ông Kiểm", "Bạch Đằng", "Nguyễn Văn Tiết", "Ngô Chí Quốc", "Ngô Quyền", "Phạm Ngũ Lão"], "distance_km": 4.93, "warnings": [], "nguon_doi_chieu": "Dựng từ tọa độ GPS thực địa (new.csv, khảo sát của SV Võ Huỳnh Bảo Hiền) + Dijkstra trên mạng lưới đường thực (graph.json)"}, "geometry": {"type": "LineString", "coordinates": [[106.654651, 10.984423], [106.65465, 10.984418], [106.654625, 10.984328], [106.654579, 10.984126], [106.654523, 10.984034], [106.654505, 10.983887], [106.654522, 10.98388], [106.654472, 10.983429], [106.654524, 10.983084], [106.654525, 10.983073], [106.654525, 10.982814], [106.654573, 10.982612], [106.654698, 10.982425], [106.654695, 10.982374], [106.65476, 10.982321], [106.654925, 10.982021], [106.655044, 10.981806], [106.65503, 10.981799], [106.655158, 10.981604], [106.655023, 10.981568], [106.654146, 10.981227], [106.654094, 10.981208], [106.65373, 10.981074], [106.653676, 10.981069], [106.653674, 10.981068], [106.653626, 10.981049], [106.653583, 10.981018], [106.653551, 10.980977], [106.653531, 10.980929], [106.653524, 10.980877], [106.653531, 10.980826], [106.652908, 10.980549], [106.652795, 10.980511], [106.652784, 10.980508], [106.652699, 10.980486], [106.652784, 10.980508], [106.652795, 10.980511], [106.652898, 10.980088], [106.653078, 10.979511], [106.653476, 10.979629], [106.653513, 10.979908], [106.653735, 10.979899], [106.653905, 10.979905], [106.654479, 10.979983], [106.654775, 10.979747], [106.654819, 10.979485], [106.654834, 10.979399], [106.654848, 10.979321], [106.654857, 10.979049], [106.654824, 10.978928], [106.65476, 10.978735], [106.654677, 10.978473], [106.654732, 10.978456], [106.654677, 10.978473], [106.654019, 10.978642], [106.653827, 10.978676], [106.653629, 10.978712], [106.653514, 10.978737], [106.653301, 10.978502], [106.653093, 10.978296], [106.652844, 10.978067], [106.653033, 10.977721], [106.653189, 10.977442], [106.653419, 10.977011], [106.653482, 10.976892], [106.653501, 10.976954], [106.653482, 10.976892], [106.653429, 10.97672], [106.653419, 10.976688], [106.653294, 10.976289], [106.653233, 10.976018], [106.653149, 10.97576], [106.65309, 10.975585], [106.653054, 10.975478], [106.653044, 10.975458], [106.653012, 10.975362], [106.652962, 10.975223], [106.652957, 10.975208], [106.65292, 10.975078], [106.652903, 10.975016], [106.652889, 10.974956], [106.652883, 10.974897], [106.652882, 10.974836], [106.652886, 10.974773], [106.652892, 10.974712], [106.65291, 10.974652], [106.652932, 10.974599], [106.652967, 10.974537], [106.653003, 10.97448], [106.653038, 10.974427], [106.653073, 10.974386], [106.65313, 10.974333], [106.653064, 10.974338], [106.653024, 10.974336], [106.652878, 10.974289], [106.652689, 10.974252], [106.652367, 10.974191], [106.652235, 10.974165], [106.651946, 10.974108], [106.651507, 10.974034], [106.651408, 10.97434], [106.65127, 10.974954], [106.651048, 10.975745], [106.651042, 10.975768], [106.650968, 10.976062], [106.650959, 10.976093], [106.65086, 10.976463], [106.650804, 10.976672], [106.650705, 10.977037], [106.650644, 10.977259], [106.650546, 10.97758], [106.650525, 10.977655], [106.650305, 10.978436], [106.650309, 10.978576], [106.650213, 10.978676], [106.650024, 10.97932], [106.649814, 10.980054], [106.649613, 10.980762], [106.649542, 10.980984], [106.649501, 10.981119], [106.649426, 10.981364], [106.649317, 10.981713], [106.649354, 10.981822], [106.649303, 10.98197], [106.649244, 10.982171], [106.649236, 10.982186], [106.648819, 10.983642], [106.648813, 10.983663], [106.648796, 10.983721], [106.648708, 10.984025], [106.648643, 10.984248], [106.648512, 10.984699], [106.648456, 10.984902], [106.648443, 10.984947], [106.648409, 10.985034], [106.64835, 10.985105], [106.648287, 10.985169], [106.648176, 10.985259], [106.647862, 10.985508], [106.648117, 10.985458], [106.648167, 10.985447], [106.648633, 10.985367], [106.64866, 10.985362], [106.649219, 10.985226], [106.649742, 10.985098], [106.6502, 10.985019], [106.650402, 10.984985], [106.650455, 10.984976], [106.650879, 10.984958], [106.650915, 10.984772], [106.651014, 10.984081], [106.65106, 10.983761], [106.651092, 10.983523], [106.651177, 10.982904], [106.651212, 10.982644], [106.651216, 10.982632], [106.651234, 10.982463], [106.651235, 10.982453], [106.651266, 10.982349], [106.651301, 10.982278], [106.651542, 10.981916], [106.651808, 10.981547], [106.651725, 10.98153], [106.651297, 10.981442], [106.651124, 10.981406], [106.650398, 10.981222], [106.649668, 10.981036], [106.650398, 10.981222], [106.651124, 10.981406], [106.651297, 10.981442], [106.651725, 10.98153], [106.651808, 10.981547], [106.652359, 10.981675], [106.652744, 10.981764], [106.652822, 10.98178], [106.653263, 10.9819], [106.653414, 10.981964], [106.653605, 10.982086], [106.653786, 10.982194], [106.653988, 10.98232], [106.654176, 10.982423], [106.654389, 10.982543], [106.654573, 10.982612]]}}, {"type": "Feature", "properties": {"xe": "Xe 1", "chuyen": "Chuyến 2", "khu_vuc": "Phú Cường", "gio": "22:30–03:00", "mau": "#f58231", "diem_thu_gom": ["Khu vực hành chính (đường Huỳnh Văn Cù)", "Trường học", "Thương mại (đường Nguyễn Văn Tiết)"], "streets": ["Nguyễn Văn Tiết", "Hẻm 176 Nguyễn Văn Tiết", "Nguyễn Văn Tiết", "Huỳnh Văn Cù", "Nguyễn Văn Lộng", "Huỳnh Văn Cù", "Nguyễn Văn Cừ"], "distance_km": 2.48, "warnings": [], "nguon_doi_chieu": "Dựng từ tọa độ GPS thực địa (new.csv, khảo sát của SV Võ Huỳnh Bảo Hiền) + Dijkstra trên mạng lưới đường thực (graph.json)"}, "geometry": {"type": "LineString", "coordinates": [[106.652431, 10.987156], [106.652335, 10.987053], [106.652084, 10.986786], [106.652059, 10.98676], [106.651768, 10.986449], [106.651713, 10.986399], [106.651657, 10.986318], [106.651617, 10.986151], [106.651622, 10.986068], [106.651494, 10.986091], [106.651622, 10.986068], [106.651564, 10.985874], [106.651498, 10.985639], [106.651455, 10.985463], [106.651538, 10.985461], [106.651455, 10.985463], [106.651293, 10.985247], [106.651137, 10.985121], [106.651011, 10.985033], [106.650879, 10.984958], [106.650455, 10.984976], [106.650402, 10.984985], [106.6502, 10.985019], [106.649742, 10.985098], [106.649219, 10.985226], [106.64866, 10.985362], [106.648633, 10.985367], [106.648167, 10.985447], [106.648117, 10.985458], [106.647862, 10.985508], [106.647704, 10.985606], [106.647654, 10.985666], [106.647761, 10.985866], [106.648299, 10.986897], [106.648502, 10.987286], [106.648522, 10.987325], [106.648655, 10.987666], [106.648752, 10.987972], [106.648786, 10.988223], [106.648778, 10.988358], [106.64874, 10.988614], [106.648673, 10.988937], [106.648634, 10.989085], [106.648581, 10.989283], [106.648568, 10.989569], [106.648597, 10.989742], [106.648638, 10.989857], [106.648692, 10.989995], [106.648837, 10.990231], [106.648876, 10.990367], [106.648933, 10.990557], [106.648775, 10.990562], [106.64876, 10.990566], [106.648736, 10.990597], [106.648382, 10.99064], [106.648291, 10.990649], [106.648196, 10.990653], [106.648108, 10.99065], [106.648047, 10.990642], [106.647986, 10.990628], [106.647923, 10.990604], [106.647899, 10.99059], [106.647542, 10.99038], [106.647319, 10.990254], [106.647223, 10.990215], [106.647113, 10.99019], [106.646962, 10.990173], [106.646775, 10.990163], [106.646407, 10.99015], [106.646113, 10.990125], [106.645866, 10.990092], [106.645695, 10.990061], [106.645536, 10.990031], [106.645368, 10.989989], [106.645254, 10.989955], [106.645123, 10.989901], [106.645073, 10.989873], [106.645045, 10.989848], [106.645025, 10.989819], [106.644951, 10.989696], [106.644682, 10.98921], [106.644625, 10.989125], [106.644561, 10.989036], [106.644464, 10.988914], [106.644255, 10.988659], [106.644054, 10.988418], [106.643749, 10.988028], [106.643689, 10.987956], [106.643701, 10.98788], [106.643524, 10.987705], [106.643403, 10.987591], [106.64317, 10.987375], [106.643053, 10.987259], [106.643016, 10.987282], [106.642999, 10.987262], [106.642837, 10.986999], [106.642703, 10.9867], [106.642614, 10.986403], [106.642603, 10.986331], [106.642588, 10.986232], [106.642597, 10.985957], [106.642624, 10.985766], [106.642657, 10.985603], [106.64268, 10.985517], [106.642705, 10.985446], [106.642717, 10.985411], [106.643111, 10.98444], [106.643129, 10.984367], [106.643141, 10.984293], [106.643147, 10.98418]]}}, {"type": "Feature", "properties": {"xe": "Xe 2", "chuyen": "Chuyến 1", "khu_vuc": "Phú Cường", "gio": "18:00–22:00", "mau": "#3cb44b", "diem_thu_gom": ["Thương mại kinh doanh (đường Hùng Vương)", "Sinh hoạt công cộng (Trần Tử Bình, Thích Quảng Đức)"], "streets": ["Đoàn Trần Nghiệp", "Hai Bà Trưng", "Văn Công Khai", "Lý Thường Kiệt", "Cầu Võ Văn Vân", "Lý Thường Kiệt", "Nguyễn An Ninh", "Cách Mạng Tháng Tám", "Cầu Bà Hên", "Hùng Vương", "Trần Tử Bình", "Lý Thường Kiệt", "Văn Công Khai", "Hùng Vương", "Đường Cách Mạng Tháng Tám", "Thích Quảng Đức", "Võ Thành Long", "Nguyễn Đình Chiểu", "Nguyễn Du"], "distance_km": 2.87, "warnings": [], "nguon_doi_chieu": "Dựng từ tọa độ GPS thực địa (new.csv, khảo sát của SV Võ Huỳnh Bảo Hiền) + Dijkstra trên mạng lưới đường thực (graph.json)"}, "geometry": {"type": "LineString", "coordinates": [[106.651208, 10.97704], [106.651525, 10.976729], [106.651862, 10.976385], [106.651999, 10.976236], [106.652014, 10.976219], [106.652352, 10.976167], [106.652873, 10.976064], [106.653233, 10.976018], [106.653294, 10.976289], [106.65427, 10.975754], [106.654314, 10.975731], [106.654338, 10.975719], [106.654415, 10.975683], [106.654519, 10.975633], [106.654677, 10.975559], [106.655359, 10.975238], [106.655955, 10.975008], [106.655996, 10.974987], [106.656251, 10.974861], [106.656467, 10.974778], [106.656608, 10.974741], [106.656696, 10.974747], [106.656727, 10.974749], [106.656969, 10.974815], [106.657147, 10.974871], [106.657197, 10.974887], [106.657179, 10.975176], [106.657186, 10.975316], [106.657223, 10.975504], [106.657272, 10.975789], [106.657317, 10.97611], [106.657375, 10.976474], [106.657415, 10.976803], [106.657095, 10.977258], [106.657072, 10.977291], [106.65706, 10.977303], [106.656984, 10.977415], [106.656946, 10.977478], [106.656816, 10.977697], [106.656739, 10.977688], [106.656613, 10.977708], [106.656471, 10.977766], [106.656126, 10.977892], [106.656024, 10.977534], [106.655973, 10.977362], [106.655869, 10.977007], [106.655862, 10.976981], [106.655818, 10.976828], [106.655813, 10.976808], [106.655682, 10.976347], [106.655657, 10.976226], [106.655648, 10.976205], [106.655411, 10.975378], [106.655359, 10.975238], [106.654677, 10.975559], [106.654519, 10.975633], [106.654415, 10.975683], [106.654338, 10.975719], [106.654314, 10.975731], [106.65427, 10.975754], [106.653294, 10.976289], [106.653419, 10.976688], [106.653429, 10.97672], [106.653482, 10.976892], [106.653501, 10.976954], [106.653616, 10.977327], [106.654019, 10.978642], [106.654677, 10.978473], [106.654732, 10.978456], [106.65508, 10.978351], [106.655488, 10.978226], [106.655826, 10.978053], [106.65605, 10.977934], [106.656126, 10.977892], [106.656471, 10.977766], [106.656613, 10.977708], [106.656739, 10.977688], [106.656816, 10.977697], [106.656761, 10.977778], [106.657019, 10.977904], [106.657295, 10.97805], [106.657425, 10.978131], [106.657369, 10.978224], [106.657098, 10.9784], [106.656743, 10.978608], [106.656499, 10.978787], [106.65646, 10.978816], [106.656258, 10.978999], [106.65616, 10.979155], [106.656126, 10.979208], [106.655969, 10.979653], [106.655957, 10.979697], [106.655803, 10.980295], [106.65547, 10.98019], [106.655284, 10.980131], [106.655069, 10.980084], [106.654704, 10.980016]]}}, {"type": "Feature", "properties": {"xe": "Xe 2", "chuyen": "Chuyến 2", "khu_vuc": "Phú Cường", "gio": "22:30–03:00", "mau": "#4363d8", "diem_thu_gom": ["Chợ và siêu thị (đường Cách Mạng Tháng Tám)", "Thương mại dọc Đại lộ Bình Dương"], "streets": ["Cách Mạng Tháng Tám", "Phan Đình Giót", "Đường Thích Quảng Đức", "Đại lộ Bình Dương", "Bác sĩ Yersin", "Phạm Ngũ Lão", "Ngô Quyền", "Cách Mạng Tháng Tám", "Ngã sáu Thủ Dầu Một", "Cách Mạng Tháng Tám", "Thích Quảng Đức", "Đường Thích Quảng Đức"], "distance_km": 7.82, "warnings": [], "nguon_doi_chieu": "Dựng từ tọa độ GPS thực địa (new.csv, khảo sát của SV Võ Huỳnh Bảo Hiền) + Dijkstra trên mạng lưới đường thực (graph.json)"}, "geometry": {"type": "LineString", "coordinates": [[106.651034, 10.991162], [106.651038, 10.991028], [106.651042, 10.99087], [106.651058, 10.990303], [106.651076, 10.990173], [106.651089, 10.990074], [106.651092, 10.990056], [106.651115, 10.989962], [106.651187, 10.98978], [106.651258, 10.989605], [106.651437, 10.989209], [106.651459, 10.989169], [106.651545, 10.989006], [106.651639, 10.988846], [106.651877, 10.988435], [106.65201, 10.988203], [106.652025, 10.988176], [106.652203, 10.987909], [106.652288, 10.987783], [106.652428, 10.987574], [106.652483, 10.98749], [106.652563, 10.987297], [106.652633, 10.98712], [106.652648, 10.987057], [106.652656, 10.986982], [106.652653, 10.986918], [106.652647, 10.986839], [106.652633, 10.986762], [106.652615, 10.986709], [106.652605, 10.986658], [106.652561, 10.986465], [106.652474, 10.986114], [106.652466, 10.985985], [106.652456, 10.985853], [106.652461, 10.985607], [106.652464, 10.985534], [106.652474, 10.985491], [106.65251, 10.985313], [106.652524, 10.985219], [106.652553, 10.985078], [106.652583, 10.984858], [106.652585, 10.98485], [106.652591, 10.984819], [106.652609, 10.984686], [106.652634, 10.984556], [106.65264, 10.984412], [106.652643, 10.984267], [106.652643, 10.984262], [106.652635, 10.984055], [106.652634, 10.98404], [106.652634, 10.983759], [106.652647, 10.983585], [106.652716, 10.98333], [106.652835, 10.983003], [106.652915, 10.982795], [106.652992, 10.982594], [106.653174, 10.982121], [106.653263, 10.9819], [106.653583, 10.981018], [106.653551, 10.980977], [106.653531, 10.980929], [106.653524, 10.980877], [106.653531, 10.980826], [106.653549, 10.980783], [106.653576, 10.980746], [106.653612, 10.980716], [106.653661, 10.980692], [106.653715, 10.980682], [106.65377, 10.980687], [106.653821, 10.980707], [106.653871, 10.980746], [106.653821, 10.980707], [106.654479, 10.979983], [106.654775, 10.979747], [106.655015, 10.979472], [106.655342, 10.979131], [106.655844, 10.978748], [106.655905, 10.978701], [106.65634, 10.978346], [106.65661, 10.977982], [106.656761, 10.977778], [106.656816, 10.977697], [106.656946, 10.977478], [106.656984, 10.977415], [106.65706, 10.977303], [106.657072, 10.977291], [106.657095, 10.977258], [106.657415, 10.976803], [106.657375, 10.976474], [106.657415, 10.976803], [106.657987, 10.975858], [106.658082, 10.975701], [106.658347, 10.975263], [106.658368, 10.975228], [106.658468, 10.975026], [106.658692, 10.974685], [106.658877, 10.974383], [106.658907, 10.974345], [106.659062, 10.97409], [106.659112, 10.974008], [106.659262, 10.973763], [106.659465, 10.973452], [106.6596, 10.97324], [106.659634, 10.973193], [106.659703, 10.973185], [106.659774, 10.973204], [106.659803, 10.973281], [106.659785, 10.973578], [106.659762, 10.973972], [106.659755, 10.974014], [106.659684, 10.974601], [106.659668, 10.974774], [106.659617, 10.97531], [106.659614, 10.975347], [106.659609, 10.975402], [106.659585, 10.975864], [106.659563, 10.976286], [106.65956, 10.976357], [106.659545, 10.976626], [106.659543, 10.976656], [106.659511, 10.977203], [106.659497, 10.977536], [106.659487, 10.977756], [106.659495, 10.977862], [106.659536, 10.977953], [106.65956, 10.978], [106.659621, 10.978079], [106.65963, 10.978093], [106.659703, 10.978207], [106.659716, 10.978226], [106.65978, 10.978375], [106.659797, 10.978522], [106.660186, 10.978498], [106.660687, 10.978417], [106.660744, 10.978408], [106.661044, 10.978351], [106.661161, 10.978302], [106.661298, 10.978238], [106.661664, 10.977995], [106.661718, 10.977959], [106.662292, 10.977581], [106.66234, 10.977552], [106.662483, 10.977463], [106.663103, 10.977163], [106.663203, 10.977122], [106.663261, 10.977098], [106.663316, 10.977074], [106.663453, 10.977031], [106.66352, 10.977013], [106.663722, 10.976968], [106.663859, 10.976958], [106.663971, 10.976972], [106.664023, 10.976983], [106.664207, 10.977038], [106.664374, 10.977119], [106.664476, 10.977172], [106.664489, 10.977178], [106.664537, 10.977203], [106.664549, 10.977209], [106.664564, 10.977217], [106.664744, 10.977305], [106.665065, 10.977411], [106.66555, 10.977566], [106.665737, 10.977631], [106.66613, 10.977766], [106.66623, 10.977796], [106.666412, 10.977837], [106.666449, 10.977849], [106.666479, 10.977856], [106.666779, 10.977955], [106.666839, 10.977986], [106.66713, 10.978117], [106.667319, 10.978236], [106.667333, 10.978248], [106.667412, 10.978301], [106.667678, 10.978439], [106.667698, 10.978453], [106.667994, 10.978619], [106.668074, 10.978664], [106.667985, 10.978862], [106.66792, 10.979005], [106.66772, 10.979411], [106.667525, 10.979805], [106.66749, 10.979876], [106.667357, 10.980175], [106.667299, 10.980303], [106.66723, 10.980457], [106.666989, 10.981071], [106.666878, 10.981363], [106.666795, 10.981622], [106.666554, 10.982429], [106.666343, 10.983226], [106.666234, 10.983784], [106.666228, 10.983815], [106.666216, 10.983866], [106.666182, 10.984043], [106.666163, 10.984132], [106.666005, 10.984121], [106.665892, 10.984109], [106.665559, 10.984065], [106.665442, 10.98405], [106.664893, 10.983904], [106.664467, 10.983791], [106.664305, 10.983748], [106.663886, 10.983667], [106.663521, 10.983619], [106.663427, 10.983607], [106.663202, 10.983584], [106.662934, 10.983556], [106.662834, 10.983513], [106.662712, 10.983499], [106.66269, 10.983559], [106.662712, 10.983499], [106.662584, 10.983468], [106.662244, 10.983286], [106.661997, 10.983075], [106.661965, 10.983045], [106.661596, 10.982716], [106.661385, 10.982575], [106.661135, 10.98244], [106.660708, 10.982376], [106.660072, 10.98236], [106.659664, 10.98236], [106.659536, 10.98236], [106.658888, 10.982403], [106.658737, 10.982418], [106.6585, 10.982417], [106.658317, 10.982356], [106.658229, 10.982302], [106.65815, 10.982241], [106.657928, 10.981998], [106.65786, 10.981934], [106.657807, 10.981863], [106.657673, 10.981745], [106.657535, 10.981659], [106.65748, 10.981634], [106.657369, 10.981593], [106.657252, 10.981568], [106.6571, 10.981533], [106.656982, 10.981533], [106.656655, 10.981567], [106.656146, 10.981618], [106.655742, 10.981661], [106.65553, 10.981655], [106.655298, 10.981623], [106.655158, 10.981604], [106.65503, 10.981799], [106.655044, 10.981806], [106.654925, 10.982021], [106.65476, 10.982321], [106.654695, 10.982374], [106.654698, 10.982425], [106.654573, 10.982612], [106.654389, 10.982543], [106.654176, 10.982423], [106.653988, 10.98232], [106.653786, 10.982194], [106.653605, 10.982086], [106.653414, 10.981964], [106.653263, 10.9819], [106.653583, 10.981018], [106.653551, 10.980977], [106.653531, 10.980929], [106.653524, 10.980877], [106.653531, 10.980826], [106.653549, 10.980783], [106.653576, 10.980746], [106.653612, 10.980716], [106.653661, 10.980692], [106.653715, 10.980682], [106.65377, 10.980687], [106.653821, 10.980707], [106.654479, 10.979983], [106.654775, 10.979747], [106.655015, 10.979472], [106.655342, 10.979131], [106.655844, 10.978748], [106.655905, 10.978701], [106.65634, 10.978346], [106.65661, 10.977982], [106.656761, 10.977778], [106.657019, 10.977904], [106.657295, 10.97805], [106.657425, 10.978131], [106.657551, 10.978183], [106.657765, 10.978248], [106.65789, 10.978286], [106.658201, 10.978369], [106.658261, 10.978385], [106.658377, 10.978416], [106.658527, 10.978458], [106.658773, 10.978517], [106.658882, 10.978527], [106.658914, 10.97853], [106.659026, 10.978531], [106.659261, 10.978532], [106.659334, 10.978529], [106.659682, 10.97853], [106.659696, 10.978528], [106.659783, 10.978523], [106.659797, 10.978522], [106.660186, 10.978498], [106.660687, 10.978417], [106.660744, 10.978408], [106.661044, 10.978351], [106.661161, 10.978302], [106.661298, 10.978238], [106.661664, 10.977995], [106.661718, 10.977959], [106.662292, 10.977581], [106.66234, 10.977552], [106.662483, 10.977463], [106.663103, 10.977163], [106.663203, 10.977122], [106.663261, 10.977098], [106.663316, 10.977074], [106.663453, 10.977031], [106.66352, 10.977013], [106.663722, 10.976968], [106.663859, 10.976958], [106.663971, 10.976972], [106.664023, 10.976983], [106.664207, 10.977038], [106.664374, 10.977119], [106.664476, 10.977172], [106.664489, 10.977178], [106.664537, 10.977203], [106.664549, 10.977209], [106.664564, 10.977217], [106.664532, 10.977394], [106.6646, 10.9773792]]}}, {"type": "Feature", "properties": {"xe": "Xe 3", "chuyen": "Chuyến 1", "khu_vuc": "Chánh Nghĩa", "gio": "17:45–23:15", "mau": "#911eb4", "diem_thu_gom": ["Thương mại (Đại lộ Bình Dương)", "Sinh hoạt công cộng", "Trường học (cuối tuyến)"], "streets": ["Đường Thích Quảng Đức", "Đại lộ Bình Dương", "Đường 30 Tháng 4", "Ba Mươi Tháng Tư", "Cách Mạng Tháng Tám", "Đường Số 4", "Đường Số 8", "Hoàng Văn Thụ", "Đường Thích Quảng Đức"], "distance_km": 5.89, "warnings": [], "nguon_doi_chieu": "Dựng từ tọa độ GPS thực địa (new.csv, khảo sát của SV Võ Huỳnh Bảo Hiền) + Dijkstra trên mạng lưới đường thực (graph.json)"}, "geometry": {"type": "LineString", "coordinates": [[106.659797, 10.978522], [106.660186, 10.978498], [106.660687, 10.978417], [106.660744, 10.978408], [106.661044, 10.978351], [106.661161, 10.978302], [106.661298, 10.978238], [106.661664, 10.977995], [106.661718, 10.977959], [106.662292, 10.977581], [106.66234, 10.977552], [106.662483, 10.977463], [106.663103, 10.977163], [106.663203, 10.977122], [106.663261, 10.977098], [106.663316, 10.977074], [106.663453, 10.977031], [106.66352, 10.977013], [106.663722, 10.976968], [106.663859, 10.976958], [106.663971, 10.976972], [106.664023, 10.976983], [106.664207, 10.977038], [106.664374, 10.977119], [106.664476, 10.977172], [106.664489, 10.977178], [106.664537, 10.977203], [106.664549, 10.977209], [106.664564, 10.977217], [106.664744, 10.977305], [106.665065, 10.977411], [106.66555, 10.977566], [106.665737, 10.977631], [106.66613, 10.977766], [106.66623, 10.977796], [106.666412, 10.977837], [106.666449, 10.977849], [106.666479, 10.977856], [106.666779, 10.977955], [106.666839, 10.977986], [106.66713, 10.978117], [106.667319, 10.978236], [106.667333, 10.978248], [106.667412, 10.978301], [106.667678, 10.978439], [106.667698, 10.978453], [106.667994, 10.978619], [106.668074, 10.978664], [106.668848, 10.977115], [106.669185, 10.976433], [106.669663, 10.975482], [106.6697, 10.975406], [106.670093, 10.974569], [106.67033, 10.974092], [106.670529, 10.973733], [106.670764, 10.973329], [106.671087, 10.972959], [106.67128, 10.972764], [106.671438, 10.972604], [106.671425, 10.972637], [106.671423, 10.972672], [106.671425, 10.972637], [106.671438, 10.972604], [106.671463, 10.972572], [106.671382, 10.972368], [106.671133, 10.971741], [106.670887, 10.971167], [106.670671, 10.970601], [106.670426, 10.969966], [106.670337, 10.969749], [106.670191, 10.969394], [106.670114, 10.969201], [106.670079, 10.969125], [106.669957, 10.968825], [106.66983, 10.968487], [106.669774, 10.968355], [106.669642, 10.968042], [106.669552, 10.96783], [106.669399, 10.967461], [106.669258, 10.967117], [106.669185, 10.966928], [106.669166, 10.966882], [106.669036, 10.966562], [106.669031, 10.966549], [106.668846, 10.966095], [106.668736, 10.965836], [106.668604, 10.96551], [106.668535, 10.965369], [106.668516, 10.96533], [106.668491, 10.965333], [106.668466, 10.965329], [106.668443, 10.965317], [106.668425, 10.965299], [106.668417, 10.965281], [106.668414, 10.965276], [106.668411, 10.965251], [106.668416, 10.965226], [106.668428, 10.965204], [106.668447, 10.965186], [106.668186, 10.964838], [106.667534, 10.963952], [106.667386, 10.96375], [106.667104, 10.963369], [106.666917, 10.963113], [106.666892, 10.963083], [106.666673, 10.962787], [106.666543, 10.962612], [106.666493, 10.96254], [106.66629, 10.962274], [106.665899, 10.961762], [106.665689, 10.961484], [106.665485, 10.961205], [106.665203, 10.960825], [106.664898, 10.96041], [106.664789, 10.960261], [106.664568, 10.959956], [106.66411, 10.959323], [106.664032, 10.959219], [106.66411, 10.959323], [106.664568, 10.959956], [106.664789, 10.960261], [106.664898, 10.96041], [106.665203, 10.960825], [106.665485, 10.961205], [106.665689, 10.961484], [106.665899, 10.961762], [106.66629, 10.962274], [106.666493, 10.96254], [106.666543, 10.962612], [106.666673, 10.962787], [106.666892, 10.963083], [106.666917, 10.963113], [106.667104, 10.963369], [106.667386, 10.96375], [106.667231, 10.963875], [106.667142, 10.963944], [106.667077, 10.964015], [106.667023, 10.964256], [106.666889, 10.964735], [106.666837, 10.965059], [106.666952, 10.965291], [106.667157, 10.965686], [106.666905, 10.96578], [106.666803, 10.965859], [106.666573, 10.965968], [106.666199, 10.966146], [106.666371, 10.966567], [106.666248, 10.967125], [106.66624, 10.96719], [106.666119, 10.967871], [106.666063, 10.968071], [106.66596, 10.968343], [106.66574, 10.968844], [106.665708, 10.968917], [106.666103, 10.969183], [106.666193, 10.969246], [106.666458, 10.969504], [106.666547, 10.96963], [106.666635, 10.969748], [106.666772, 10.969845], [106.666844, 10.969873], [106.666887, 10.969902], [106.667011, 10.969933], [106.667161, 10.969932], [106.667092, 10.970095], [106.667032, 10.970252], [106.666917, 10.970538], [106.666854, 10.970725], [106.666867, 10.970859], [106.666603, 10.971511], [106.666547, 10.971657], [106.666525, 10.971704], [106.666409, 10.971972], [106.666224, 10.972418], [106.666048, 10.972858], [106.665911, 10.973196], [106.665772, 10.97354], [106.665616, 10.973941], [106.665588, 10.974014], [106.665445, 10.974429], [106.665343, 10.974727], [106.66521, 10.975113], [106.665082, 10.975517], [106.664975, 10.975853], [106.664749, 10.976566], [106.664549, 10.977209], [106.664564, 10.977217], [106.664532, 10.977394], [106.6646, 10.9773792]]}}, {"type": "Feature", "properties": {"xe": "Xe 3", "chuyen": "Chuyến 2", "khu_vuc": "Chánh Nghĩa", "gio": "23:30–03:00", "mau": "#42d4f4", "diem_thu_gom": ["Chợ, siêu thị, thương mại (đường Hoàng Văn Thụ)", "Trường học"], "streets": ["Đường Thích Quảng Đức", "Hoàng Văn Thụ", "Đường 30 Tháng 4", "Ba Mươi Tháng Tư", "Cách Mạng Tháng Tám", "Phan Đình Giót"], "distance_km": 3.73, "warnings": [], "nguon_doi_chieu": "Dựng từ tọa độ GPS thực địa (new.csv, khảo sát của SV Võ Huỳnh Bảo Hiền) + Dijkstra trên mạng lưới đường thực (graph.json)"}, "geometry": {"type": "LineString", "coordinates": [[106.664489, 10.977178], [106.664476, 10.977172], [106.664657, 10.976594], [106.664672, 10.976541], [106.664798, 10.976147], [106.664905, 10.97583], [106.664995, 10.975564], [106.665017, 10.975494], [106.66514, 10.97509], [106.665273, 10.9747], [106.665373, 10.974403], [106.665517, 10.973988], [106.665547, 10.973919], [106.665699, 10.973514], [106.665832, 10.973163], [106.665972, 10.972819], [106.666041, 10.972649], [106.66615, 10.972395], [106.666335, 10.971939], [106.666444, 10.971669], [106.666521, 10.971481], [106.666742, 10.970911], [106.66678, 10.970819], [106.666854, 10.970725], [106.666917, 10.970538], [106.667032, 10.970252], [106.667092, 10.970095], [106.667161, 10.969932], [106.667536, 10.969914], [106.667755, 10.969906], [106.667916, 10.969896], [106.668024, 10.969878], [106.668396, 10.969662], [106.668773, 10.969448], [106.668821, 10.969421], [106.668927, 10.969361], [106.669184, 10.969223], [106.669632, 10.968982], [106.669849, 10.968877], [106.669957, 10.968825], [106.66983, 10.968487], [106.669774, 10.968355], [106.669642, 10.968042], [106.669552, 10.96783], [106.669399, 10.967461], [106.669258, 10.967117], [106.669185, 10.966928], [106.669166, 10.966882], [106.669036, 10.966562], [106.669031, 10.966549], [106.668846, 10.966095], [106.668736, 10.965836], [106.668604, 10.96551], [106.668535, 10.965369], [106.668516, 10.96533], [106.668491, 10.965333], [106.668466, 10.965329], [106.668443, 10.965317], [106.668056, 10.965455], [106.667856, 10.965526], [106.667662, 10.965595], [106.667443, 10.965673], [106.667271, 10.965734], [106.667193, 10.965764], [106.666952, 10.96585], [106.666803, 10.965859], [106.666573, 10.965968], [106.666199, 10.966146], [106.666001, 10.966242], [106.665348, 10.966554], [106.664991, 10.966765], [106.664634, 10.966994], [106.664605, 10.96702], [106.66437, 10.967232], [106.664202, 10.967393], [106.664128, 10.967465], [106.664003, 10.967582], [106.663878, 10.967698], [106.663441, 10.968096], [106.663366, 10.968167], [106.6632, 10.96831], [106.663008, 10.968457], [106.662933, 10.968506], [106.662857, 10.968545], [106.662704, 10.968604], [106.662583, 10.96863], [106.662227, 10.968622], [106.661619, 10.968578], [106.661489, 10.968568], [106.661446, 10.968564], [106.661085, 10.968545], [106.661037, 10.968552], [106.660948, 10.968565], [106.66091, 10.968571], [106.660742, 10.968614], [106.660586, 10.96868], [106.660472, 10.968733], [106.66043, 10.968753], [106.660285, 10.968834], [106.660207, 10.968889], [106.660144, 10.968934], [106.660016, 10.969039], [106.659891, 10.96917], [106.659832, 10.969306], [106.659814, 10.969472], [106.659798, 10.969751], [106.659789, 10.969929], [106.659782, 10.970062], [106.65978, 10.970086], [106.659773, 10.970194], [106.659772, 10.970201], [106.659754, 10.970551], [106.659709, 10.970775], [106.659655, 10.971009], [106.659634, 10.971141], [106.659621, 10.971205], [106.65961, 10.971265], [106.659605, 10.971357], [106.65961, 10.971444], [106.65962, 10.971523], [106.659636, 10.971644], [106.659643, 10.971666], [106.65982, 10.97228], [106.659851, 10.9724], [106.659863, 10.972542], [106.659875, 10.972687], [106.659844, 10.972874], [106.659841, 10.972903], [106.659832, 10.972996], [106.659803, 10.973281], [106.659785, 10.973578], [106.659762, 10.973972], [106.659755, 10.974014], [106.659684, 10.974601], [106.659668, 10.974774], [106.659617, 10.97531], [106.659614, 10.975347], [106.659609, 10.975402], [106.659585, 10.975864], [106.659563, 10.976286], [106.65956, 10.976357], [106.659545, 10.976626], [106.659543, 10.976656], [106.659511, 10.977203], [106.659497, 10.977536], [106.659487, 10.977756], [106.659495, 10.977862], [106.659536, 10.977953], [106.65956, 10.978], [106.659621, 10.978079], [106.65963, 10.978093], [106.659703, 10.978207], [106.659716, 10.978226], [106.65978, 10.978375]]}}, {"type": "Feature", "properties": {"xe": "Xe 4", "chuyen": "Chuyến 1", "khu_vuc": "Chánh Nghĩa", "gio": "17:45–23:15", "mau": "#f032e6", "diem_thu_gom": ["Khu vực hành chính (đầu tuyến)", "Sinh hoạt công cộng (Văn Công Khai)", "Thương mại (Lý Thường Kiệt - CMT8)"], "streets": ["Ngô Gia Tự", "Đường N3", "Cách Mạng Tháng Tám", "Bàu Bàng", "Văn Công Khai", "Cầu Bến Cỏ", "Văn Công Khai", "Lý Thường Kiệt", "Cách Mạng Tháng Tám", "Đường N3"], "distance_km": 3.19, "warnings": [], "nguon_doi_chieu": "Dựng từ tọa độ GPS thực địa (new.csv, khảo sát của SV Võ Huỳnh Bảo Hiền) + Dijkstra trên mạng lưới đường thực (graph.json)"}, "geometry": {"type": "LineString", "coordinates": [[106.669574, 10.975349], [106.669439, 10.975296], [106.669292, 10.975241], [106.66894, 10.975106], [106.668721, 10.975033], [106.668683, 10.975028], [106.668514, 10.974982], [106.668131, 10.974891], [106.668112, 10.974884], [106.668062, 10.974866], [106.667866, 10.974798], [106.667716, 10.974746], [106.667263, 10.974589], [106.667084, 10.974523], [106.666705, 10.974384], [106.66616, 10.974181], [106.666043, 10.974179], [106.665588, 10.974014], [106.665517, 10.973988], [106.66499, 10.973795], [106.66449, 10.973601], [106.66396, 10.973398], [106.66342, 10.973185], [106.662992, 10.973004], [106.662939, 10.972948], [106.662914, 10.972935], [106.662892, 10.972912], [106.662877, 10.972885], [106.662719, 10.972439], [106.662682, 10.972394], [106.66262, 10.972362], [106.662523, 10.972331], [106.662332, 10.972277], [106.662216, 10.972244], [106.662094, 10.972209], [106.66189, 10.972179], [106.661762, 10.972182], [106.661563, 10.972227], [106.661351, 10.972262], [106.661182, 10.972277], [106.661037, 10.972282], [106.660947, 10.972269], [106.660837, 10.972262], [106.660691, 10.972235], [106.660586, 10.972206], [106.660542, 10.972194], [106.660356, 10.97217], [106.660165, 10.972205], [106.659869, 10.972271], [106.65982, 10.97228], [106.659851, 10.9724], [106.659863, 10.972542], [106.659851, 10.9724], [106.659746, 10.972467], [106.659638, 10.972472], [106.659519, 10.972426], [106.6594, 10.972411], [106.659318, 10.972404], [106.659182, 10.972385], [106.659107, 10.972388], [106.658928, 10.972399], [106.658802, 10.972412], [106.658774, 10.972415], [106.658648, 10.97243], [106.658113, 10.972498], [106.657864, 10.972533], [106.657805, 10.972542], [106.657662, 10.972562], [106.657095, 10.972644], [106.656623, 10.972724], [106.656518, 10.972752], [106.656474, 10.972763], [106.656318, 10.97281], [106.655816, 10.973004], [106.654932, 10.973355], [106.654857, 10.97335], [106.65475, 10.973471], [106.654692, 10.973451], [106.65475, 10.973471], [106.654518, 10.973624], [106.653972, 10.973915], [106.653896, 10.973961], [106.65313, 10.974333], [106.653073, 10.974386], [106.653038, 10.974427], [106.653003, 10.97448], [106.652967, 10.974537], [106.652932, 10.974599], [106.65291, 10.974652], [106.652892, 10.974712], [106.652886, 10.974773], [106.652882, 10.974836], [106.652883, 10.974897], [106.652889, 10.974956], [106.652903, 10.975016], [106.65292, 10.975078], [106.652957, 10.975208], [106.652962, 10.975223], [106.653012, 10.975362], [106.653044, 10.975458], [106.653054, 10.975478], [106.65309, 10.975585], [106.653149, 10.97576], [106.653233, 10.976018], [106.653294, 10.976289], [106.65427, 10.975754], [106.654314, 10.975731], [106.654338, 10.975719], [106.654415, 10.975683], [106.654519, 10.975633], [106.654677, 10.975559], [106.655359, 10.975238], [106.655955, 10.975008], [106.655996, 10.974987], [106.656251, 10.974861], [106.656467, 10.974778], [106.656608, 10.974741], [106.656696, 10.974747], [106.656727, 10.974749], [106.656969, 10.974815], [106.657147, 10.974871], [106.657197, 10.974887], [106.657817, 10.974994], [106.658263, 10.975006], [106.658293, 10.97501], [106.658334, 10.975013], [106.658468, 10.975026], [106.658692, 10.974685], [106.658877, 10.974383], [106.658907, 10.974345], [106.659062, 10.97409], [106.659112, 10.974008], [106.659262, 10.973763], [106.659465, 10.973452], [106.6596, 10.97324], [106.659634, 10.973193], [106.659844, 10.972874], [106.659875, 10.972687], [106.659863, 10.972542], [106.659851, 10.9724], [106.65982, 10.97228]]}}, {"type": "Feature", "properties": {"xe": "Xe 4", "chuyen": "Chuyến 2", "khu_vuc": "Chánh Nghĩa", "gio": "23:30–03:00", "mau": "#bfef45", "diem_thu_gom": ["Chợ/siêu thị (gần CMT8 và Bùi Quốc Khánh)", "Khu dân cư, thương mại"], "streets": ["Cách Mạng Tháng Tám", "Lào Cai", "Bùi Quốc Khánh", "Ba Mươi Tháng Tư", "Đường Nguyễn Tri Phương"], "distance_km": 5.17, "warnings": [], "nguon_doi_chieu": "Dựng từ tọa độ GPS thực địa (new.csv, khảo sát của SV Võ Huỳnh Bảo Hiền) + Dijkstra trên mạng lưới đường thực (graph.json)"}, "geometry": {"type": "LineString", "coordinates": [[106.659891, 10.96917], [106.660016, 10.969039], [106.660144, 10.968934], [106.660207, 10.968889], [106.660285, 10.968834], [106.66043, 10.968753], [106.660472, 10.968733], [106.660586, 10.96868], [106.660742, 10.968614], [106.66091, 10.968571], [106.660948, 10.968565], [106.661037, 10.968552], [106.661085, 10.968545], [106.661446, 10.968564], [106.661489, 10.968568], [106.661619, 10.968578], [106.662227, 10.968622], [106.662583, 10.96863], [106.662704, 10.968604], [106.662857, 10.968545], [106.662933, 10.968506], [106.663008, 10.968457], [106.6632, 10.96831], [106.663366, 10.968167], [106.663441, 10.968096], [106.663878, 10.967698], [106.664003, 10.967582], [106.664128, 10.967465], [106.664202, 10.967393], [106.66437, 10.967232], [106.664605, 10.96702], [106.664634, 10.966994], [106.664991, 10.966765], [106.665348, 10.966554], [106.666001, 10.966242], [106.666199, 10.966146], [106.666573, 10.965968], [106.666803, 10.965859], [106.666952, 10.96585], [106.667193, 10.965764], [106.667271, 10.965734], [106.667443, 10.965673], [106.667662, 10.965595], [106.667856, 10.965526], [106.668056, 10.965455], [106.668443, 10.965317], [106.668425, 10.965299], [106.668417, 10.965281], [106.668414, 10.965276], [106.668411, 10.965251], [106.668416, 10.965226], [106.668034, 10.96537], [106.667845, 10.965436], [106.667685, 10.965499], [106.667636, 10.965516], [106.667417, 10.965594], [106.667157, 10.965686], [106.666905, 10.96578], [106.666803, 10.965859], [106.666573, 10.965968], [106.666199, 10.966146], [106.666001, 10.966242], [106.665348, 10.966554], [106.664991, 10.966765], [106.664634, 10.966994], [106.664605, 10.96702], [106.664476, 10.966885], [106.664316, 10.966725], [106.664276, 10.966673], [106.664221, 10.966603], [106.664185, 10.966521], [106.664145, 10.966425], [106.66414, 10.966323], [106.664119, 10.966141], [106.664112, 10.965964], [106.664085, 10.965789], [106.66407, 10.965718], [106.664032, 10.965615], [106.663971, 10.965499], [106.663893, 10.965409], [106.663736, 10.965267], [106.663588, 10.965141], [106.66346, 10.96504], [106.663391, 10.964985], [106.663304, 10.964925], [106.663199, 10.964851], [106.663067, 10.964777], [106.662932, 10.964713], [106.662705, 10.964621], [106.662248, 10.964492], [106.661957, 10.964408], [106.661856, 10.964379], [106.661587, 10.964294], [106.661505, 10.964254], [106.661349, 10.964146], [106.661245, 10.96408], [106.660984, 10.96389], [106.660669, 10.963685], [106.660856, 10.963408], [106.661109, 10.962891], [106.661136, 10.962836], [106.661277, 10.962606], [106.6613, 10.962566], [106.661428, 10.962335], [106.66145, 10.962296], [106.661651, 10.961958], [106.661902, 10.961566], [106.661915, 10.96155], [106.662317, 10.961028], [106.662671, 10.960524], [106.66284, 10.960278], [106.662853, 10.960255], [106.663021, 10.95996], [106.663121, 10.959805], [106.663159, 10.959748], [106.663256, 10.959652], [106.663534, 10.959464], [106.66395, 10.959262], [106.664032, 10.959219], [106.66395, 10.959262], [106.664032, 10.959219], [106.663375, 10.958356], [106.663338, 10.958308], [106.663139, 10.958039], [106.662948, 10.957637], [106.662795, 10.957271], [106.662659, 10.956845], [106.662623, 10.956734], [106.662439, 10.956156], [106.662408, 10.956102], [106.662388, 10.956078], [106.662319, 10.955991], [106.662119, 10.955801], [106.661994, 10.955702], [106.661885, 10.95561], [106.660882, 10.954761], [106.660738, 10.954642], [106.659657, 10.953712], [106.659559, 10.953662], [106.659472, 10.953703], [106.659335, 10.953907], [106.659102, 10.95418], [106.658814, 10.954517], [106.658681, 10.954682], [106.65861, 10.95477], [106.658511, 10.954917], [106.658451, 10.955021], [106.65838, 10.955228], [106.658351, 10.95537], [106.658204, 10.956084], [106.658138, 10.956402], [106.658127, 10.956461], [106.658049, 10.956857], [106.657875, 10.957739], [106.657792, 10.958157], [106.657761, 10.958315], [106.65774, 10.958423], [106.657666, 10.958793], [106.657525, 10.959467], [106.657515, 10.959518], [106.657463, 10.959764], [106.657425, 10.959839], [106.657363, 10.959889], [106.65713, 10.960057], [106.656839, 10.960211], [106.654928, 10.961248], [106.654598, 10.961427], [106.653964, 10.961771], [106.653805, 10.961875], [106.653717, 10.961997], [106.653575, 10.96237], [106.653146, 10.963504], [106.653371, 10.963726], [106.653541, 10.963923], [106.653622, 10.964018], [106.653723, 10.964109], [106.653873, 10.964212], [106.653888, 10.964223], [106.654001, 10.964295], [106.654105, 10.964352], [106.654406, 10.96444]]}}, {"type": "Feature", "properties": {"xe": "Xe 5", "chuyen": "Chuyến 1", "khu_vuc": "Chánh Nghĩa", "gio": "17:45–23:15", "mau": "#469990", "diem_thu_gom": ["Trường học, cơ sở sản xuất - dịch vụ, kho bãi/chuyển phát (đường Bùi Quốc Khánh)"], "streets": ["Cách Mạng Tháng Tám", "Lò Chén", "Bùi Quốc Khánh", "Lào Cai", "Đường Nguyễn Tri Phương"], "distance_km": 4.77, "warnings": [], "nguon_doi_chieu": "Dựng từ tọa độ GPS thực địa (new.csv, khảo sát của SV Võ Huỳnh Bảo Hiền) + Dijkstra trên mạng lưới đường thực (graph.json)"}, "geometry": {"type": "LineString", "coordinates": [[106.659891, 10.96917], [106.659611, 10.968995], [106.659566, 10.968982], [106.659346, 10.968919], [106.659125, 10.968934], [106.659019, 10.968941], [106.658685, 10.969022], [106.65844, 10.969082], [106.658, 10.969266], [106.657801, 10.969345], [106.657378, 10.969512], [106.657052, 10.969644], [106.65649, 10.969883], [106.656412, 10.969906], [106.656207, 10.969968], [106.656155, 10.970018], [106.65603, 10.969851], [106.656003, 10.969773], [106.655952, 10.969501], [106.655945, 10.969375], [106.655949, 10.969164], [106.655934, 10.969101], [106.65591, 10.968985], [106.655909, 10.968919], [106.656134, 10.968969], [106.656198, 10.96897], [106.656296, 10.968957], [106.656437, 10.968908], [106.656494, 10.968903], [106.656567, 10.968904], [106.656763, 10.968914], [106.656567, 10.968904], [106.656494, 10.968903], [106.656437, 10.968908], [106.656296, 10.968957], [106.656198, 10.96897], [106.656134, 10.968969], [106.655909, 10.968919], [106.65591, 10.968985], [106.655934, 10.969101], [106.655949, 10.969164], [106.655945, 10.969375], [106.655952, 10.969501], [106.656003, 10.969773], [106.65603, 10.969851], [106.656155, 10.970018], [106.656207, 10.969968], [106.657201, 10.96851], [106.657715, 10.967755], [106.657702, 10.967755], [106.657602, 10.967756], [106.657392, 10.967785], [106.657602, 10.967756], [106.657702, 10.967755], [106.657715, 10.967755], [106.657765, 10.967688], [106.657788, 10.967657], [106.657888, 10.967511], [106.657904, 10.967486], [106.658068, 10.967232], [106.65842, 10.966703], [106.65855, 10.966517], [106.658743, 10.966264], [106.658957, 10.965854], [106.659081, 10.965644], [106.659271, 10.965385], [106.659304, 10.96534], [106.659705, 10.964847], [106.660113, 10.964346], [106.660516, 10.963867], [106.660669, 10.963685], [106.660303, 10.963388], [106.660182, 10.963306], [106.659987, 10.963163], [106.659842, 10.963035], [106.65955, 10.962793], [106.65942, 10.962678], [106.659365, 10.962631], [106.659222, 10.962487], [106.658845, 10.962133], [106.658244, 10.961548], [106.657615, 10.960945], [106.657365, 10.960705], [106.656839, 10.960211], [106.65713, 10.960057], [106.657363, 10.959889], [106.657425, 10.959839], [106.657463, 10.959764], [106.657515, 10.959518], [106.657525, 10.959467], [106.657666, 10.958793], [106.65774, 10.958423], [106.657761, 10.958315], [106.657792, 10.958157], [106.657875, 10.957739], [106.658049, 10.956857], [106.658127, 10.956461], [106.658138, 10.956402], [106.658204, 10.956084], [106.658351, 10.95537], [106.65838, 10.955228], [106.658451, 10.955021], [106.658511, 10.954917], [106.65861, 10.95477], [106.658681, 10.954682], [106.658814, 10.954517], [106.659102, 10.95418], [106.659335, 10.953907], [106.659472, 10.953703], [106.659559, 10.953662], [106.659472, 10.953703], [106.659335, 10.953907], [106.659102, 10.95418], [106.658814, 10.954517], [106.658681, 10.954682], [106.65861, 10.95477], [106.658511, 10.954917], [106.658451, 10.955021], [106.65838, 10.955228], [106.658351, 10.95537], [106.658204, 10.956084], [106.658138, 10.956402], [106.658127, 10.956461], [106.658049, 10.956857], [106.657875, 10.957739], [106.657792, 10.958157], [106.657761, 10.958315], [106.65774, 10.958423], [106.657666, 10.958793], [106.657525, 10.959467], [106.657515, 10.959518], [106.657463, 10.959764], [106.657425, 10.959839], [106.657363, 10.959889], [106.65713, 10.960057], [106.656839, 10.960211], [106.654928, 10.961248], [106.654598, 10.961427], [106.653964, 10.961771], [106.653805, 10.961875], [106.653717, 10.961997], [106.653575, 10.96237], [106.653146, 10.963504], [106.653371, 10.963726], [106.653541, 10.963923], [106.653622, 10.964018], [106.653723, 10.964109], [106.653873, 10.964212], [106.653888, 10.964223], [106.654001, 10.964295], [106.654105, 10.964352], [106.654406, 10.96444]]}}, {"type": "Feature", "properties": {"xe": "Xe 5", "chuyen": "Chuyến 2", "khu_vuc": "Chánh Nghĩa", "gio": "23:15–03:00", "mau": "#9A6324", "diem_thu_gom": ["Khu vực công cộng và thương mại (đường Nguyễn Tri Phương)"], "streets": ["Đường Nguyễn Tri Phương", "Cầu Thủ Ngữ", "Đường Nguyễn Tri Phương", "Ngô Thị Lan", "Đường Nguyễn Tri Phương", "Lào Cai", "Đường Nguyễn Tri Phương"], "distance_km": 5.13, "warnings": [], "nguon_doi_chieu": "Dựng từ tọa độ GPS thực địa (new.csv, khảo sát của SV Võ Huỳnh Bảo Hiền) + Dijkstra trên mạng lưới đường thực (graph.json)"}, "geometry": {"type": "LineString", "coordinates": [[106.654406, 10.96444], [106.654105, 10.964352], [106.653935, 10.964605], [106.653662, 10.965009], [106.65279, 10.96441], [106.652656, 10.964749], [106.652282, 10.965701], [106.651888, 10.966701], [106.651862, 10.966767], [106.651551, 10.967578], [106.651253, 10.968356], [106.651034, 10.96893], [106.651028, 10.968945], [106.650821, 10.969484], [106.650578, 10.970132], [106.650552, 10.970199], [106.650524, 10.97028], [106.650501, 10.970365], [106.650483, 10.970446], [106.650476, 10.970537], [106.650472, 10.970615], [106.650479, 10.970713], [106.650504, 10.970788], [106.650547, 10.970875], [106.650612, 10.970992], [106.650703, 10.971137], [106.650876, 10.971399], [106.65089, 10.971417], [106.651153, 10.971757], [106.651183, 10.9718], [106.651294, 10.971957], [106.651411, 10.972141], [106.651488, 10.972311], [106.651522, 10.972417], [106.65155, 10.972562], [106.651562, 10.972734], [106.651566, 10.972895], [106.651572, 10.973152], [106.651572, 10.973496], [106.651544, 10.973802], [106.651507, 10.974034], [106.651408, 10.97434], [106.65127, 10.974954], [106.651048, 10.975745], [106.65127, 10.974954], [106.651408, 10.97434], [106.651507, 10.974034], [106.651544, 10.973802], [106.651572, 10.973496], [106.651572, 10.973152], [106.651566, 10.972895], [106.651562, 10.972734], [106.65155, 10.972562], [106.651522, 10.972417], [106.651488, 10.972311], [106.651411, 10.972141], [106.651294, 10.971957], [106.651183, 10.9718], [106.651153, 10.971757], [106.65089, 10.971417], [106.650876, 10.971399], [106.650703, 10.971137], [106.650612, 10.970992], [106.650547, 10.970875], [106.650504, 10.970788], [106.650479, 10.970713], [106.650472, 10.970615], [106.650476, 10.970537], [106.650483, 10.970446], [106.650501, 10.970365], [106.650524, 10.97028], [106.650552, 10.970199], [106.650578, 10.970132], [106.650821, 10.969484], [106.651028, 10.968945], [106.650875, 10.968931], [106.651028, 10.968945], [106.651034, 10.96893], [106.651253, 10.968356], [106.651551, 10.967578], [106.651862, 10.966767], [106.651599, 10.966748], [106.651862, 10.966767], [106.651888, 10.966701], [106.652282, 10.965701], [106.652656, 10.964749], [106.652506, 10.964711], [106.652656, 10.964749], [106.65279, 10.96441], [106.653062, 10.963705], [106.653146, 10.963504], [106.653575, 10.96237], [106.653717, 10.961997], [106.653805, 10.961875], [106.653964, 10.961771], [106.654598, 10.961427], [106.654461, 10.961342], [106.653916, 10.961035], [106.653324, 10.960693], [106.652698, 10.960337], [106.651995, 10.959988], [106.651445, 10.959706], [106.651411, 10.959687], [106.651445, 10.959706], [106.651995, 10.959988], [106.652698, 10.960337], [106.653324, 10.960693], [106.653916, 10.961035], [106.654461, 10.961342], [106.654598, 10.961427], [106.654928, 10.961248], [106.656839, 10.960211], [106.657365, 10.960705], [106.657615, 10.960945], [106.657376, 10.961116], [106.657047, 10.960789], [106.65665, 10.961134], [106.656285, 10.961145], [106.65665, 10.961134], [106.657047, 10.960789], [106.657376, 10.961116], [106.657615, 10.960945], [106.657365, 10.960705], [106.656839, 10.960211]]}}, {"type": "Feature", "properties": {"xe": "Xe 6", "chuyen": "", "khu_vuc": "Phú Thọ", "gio": "18:30–20:00", "mau": "#800000", "diem_thu_gom": ["Khu dân cư, khu hành chính, cơ sở sản xuất (đầu tuyến)", "Khu vực công cộng (trục lớn)"], "streets": ["Đường Võ Minh Đức", "Phan Bội Châu", "Lý Tự Trọng", "Xóm Guốc", "Phan Bội Châu", "Lê Hồng Phong", "Cách Mạng Tháng Tám", "Ba Mươi Tháng Tư", "Đường 30 Tháng 4"], "distance_km": 5.46, "warnings": [], "nguon_doi_chieu": "Dựng từ tọa độ GPS thực địa (new.csv, khảo sát của SV Võ Huỳnh Bảo Hiền) + Dijkstra trên mạng lưới đường thực (graph.json)"}, "geometry": {"type": "LineString", "coordinates": [[106.662092, 10.955678], [106.661946, 10.954424], [106.661941, 10.954385], [106.661814, 10.95371], [106.66181, 10.953691], [106.661693, 10.95336], [106.661648, 10.953246], [106.661556, 10.953012], [106.66155, 10.952997], [106.661484, 10.952772], [106.661444, 10.952618], [106.661423, 10.952498], [106.661408, 10.952338], [106.661407, 10.952184], [106.661407, 10.95217], [106.661409, 10.951973], [106.661422, 10.951701], [106.661454, 10.951442], [106.661456, 10.95139], [106.661461, 10.951282], [106.661422, 10.951262], [106.661323, 10.951192], [106.6613, 10.951166], [106.661271, 10.95113], [106.661248, 10.951103], [106.661219, 10.951056], [106.661188, 10.950978], [106.661092, 10.950984], [106.66105, 10.950951], [106.660989, 10.950888], [106.660953, 10.950769], [106.660946, 10.950632], [106.660968, 10.950116], [106.66096, 10.949227], [106.660955, 10.948889], [106.660955, 10.948841], [106.660935, 10.94849], [106.660912, 10.948216], [106.660686, 10.947851], [106.660459, 10.947624], [106.660205, 10.94749], [106.66017, 10.94743], [106.660077, 10.947433], [106.659683, 10.94787], [106.659469, 10.948281], [106.659333, 10.948679], [106.659344, 10.948935], [106.659494, 10.949331], [106.659623, 10.949572], [106.659682, 10.949682], [106.659855, 10.950004], [106.65997, 10.950232], [106.660114, 10.950435], [106.66027, 10.950653], [106.66043, 10.950863], [106.660674, 10.950984], [106.660874, 10.95102], [106.661092, 10.950984], [106.661188, 10.950978], [106.66141, 10.950916], [106.661896, 10.950674], [106.662111, 10.950589], [106.66241, 10.950463], [106.663819, 10.949879], [106.663865, 10.949899], [106.663917, 10.949866], [106.663865, 10.949899], [106.663918, 10.949953], [106.664179, 10.950598], [106.664236, 10.95079], [106.664267, 10.950895], [106.66431, 10.951038], [106.664414, 10.95138], [106.664412, 10.951473], [106.664375, 10.952257], [106.664369, 10.952391], [106.664379, 10.952488], [106.664395, 10.95264], [106.664408, 10.95272], [106.664428, 10.952853], [106.664438, 10.952902], [106.664529, 10.953392], [106.664652, 10.953782], [106.664829, 10.954314], [106.665068, 10.955034], [106.665103, 10.955121], [106.665132, 10.95521], [106.665231, 10.955504], [106.665397, 10.956002], [106.66554, 10.956247], [106.665861, 10.956479], [106.666176, 10.956718], [106.666295, 10.956808], [106.666738, 10.957151], [106.667147, 10.957448], [106.667311, 10.957567], [106.667788, 10.957902], [106.668053, 10.958104], [106.668186, 10.958206], [106.668293, 10.958288], [106.668439, 10.958394], [106.66858, 10.958496], [106.668718, 10.958582], [106.66901, 10.958789], [106.669351, 10.959032], [106.669381, 10.959054], [106.669415, 10.959077], [106.669931, 10.959467], [106.67053, 10.959891], [106.670708, 10.960003], [106.670838, 10.960061], [106.671092, 10.960178], [106.671108, 10.960185], [106.671722, 10.960454], [106.671824, 10.960504], [106.672165, 10.960671], [106.672381, 10.960776], [106.672767, 10.960952], [106.673255, 10.961174], [106.673534, 10.961296], [106.67483, 10.961861], [106.674621, 10.962001], [106.674134, 10.962291], [106.673785, 10.962472], [106.673589, 10.962574], [106.672685, 10.963088], [106.672455, 10.96321], [106.671812, 10.963552], [106.671172, 10.963876], [106.671021, 10.963958], [106.670233, 10.964385], [106.670145, 10.964433], [106.670015, 10.964565], [106.668963, 10.96511], [106.668575, 10.965255], [106.668572, 10.96523], [106.668575, 10.965255], [106.66857, 10.96528], [106.668558, 10.965302], [106.66854, 10.965319], [106.668516, 10.96533], [106.668535, 10.965369], [106.668604, 10.96551], [106.668736, 10.965836], [106.668846, 10.966095], [106.669031, 10.966549], [106.669036, 10.966562], [106.669166, 10.966882], [106.669185, 10.966928], [106.669258, 10.967117], [106.669399, 10.967461], [106.669552, 10.96783], [106.669642, 10.968042], [106.669774, 10.968355], [106.66983, 10.968487], [106.669957, 10.968825], [106.670079, 10.969125], [106.670114, 10.969201], [106.670191, 10.969394], [106.670337, 10.969749], [106.670426, 10.969966], [106.670671, 10.970601], [106.670887, 10.971167], [106.671133, 10.971741], [106.671382, 10.972368], [106.671463, 10.972572]]}}, {"type": "Feature", "properties": {"xe": "Xe 7", "chuyen": "", "khu_vuc": "Phú Thọ", "gio": "~", "mau": "#ff00ff", "diem_thu_gom": ["Trường học, thương mại, hành chính, sản xuất - dịch vụ (dọc 2 trục)"], "streets": ["Cách Mạng Tháng Tám", "Lê Hồng Phong"], "distance_km": 1.91, "warnings": [], "nguon_doi_chieu": "Dựng từ tọa độ GPS thực địa (new.csv, khảo sát của SV Võ Huỳnh Bảo Hiền) + Dijkstra trên mạng lưới đường thực (graph.json)"}, "geometry": {"type": "LineString", "coordinates": [[106.668561, 10.965207], [106.668543, 10.965189], [106.668882, 10.965058], [106.669967, 10.964476], [106.670145, 10.964433], [106.670233, 10.964385], [106.671021, 10.963958], [106.671172, 10.963876], [106.671812, 10.963552], [106.672455, 10.96321], [106.672685, 10.963088], [106.673589, 10.962574], [106.673785, 10.962472], [106.674134, 10.962291], [106.674621, 10.962001], [106.67483, 10.961861], [106.674973, 10.961765], [106.67483, 10.961861], [106.675501, 10.962191], [106.675932, 10.962378], [106.675965, 10.962392], [106.676374, 10.962564], [106.676447, 10.962595], [106.677127, 10.96288], [106.677204, 10.962912], [106.677286, 10.962947], [106.677545, 10.963059], [106.677926, 10.963223], [106.678017, 10.963262], [106.67851, 10.963471], [106.678689, 10.963551], [106.679362, 10.963851], [106.679463, 10.963889], [106.679631, 10.963958], [106.679855, 10.96405], [106.679931, 10.964082], [106.680333, 10.964258], [106.680681, 10.964402], [106.681254, 10.964634], [106.681353, 10.964675], [106.68159, 10.964778], [106.681795, 10.964867], [106.682309, 10.965078], [106.682591, 10.965208], [106.683117, 10.965449], [106.683167, 10.965498], [106.683256, 10.965637], [106.683281, 10.965739], [106.683286, 10.965834], [106.683263, 10.96617], [106.68325, 10.966258]]}}, {"type": "Feature", "properties": {"xe": "Xe 8", "chuyen": "", "khu_vuc": "Phú Thọ", "gio": "19:30–21:00", "mau": "#000075", "diem_thu_gom": ["Thương mại, công cộng, sản xuất, hành chính", "Chợ/siêu thị (cuối tuyến, 21:00)"], "streets": ["Đại lộ Bình Dương", "Trần Bình Trọng", "Nguyễn Hữu Cảnh", "Đường 30 Tháng 4", "Đại lộ Bình Dương", "Trần Bình Trọng", "Đại lộ Bình Dương"], "distance_km": 6.41, "warnings": [], "nguon_doi_chieu": "Dựng từ tọa độ GPS thực địa (new.csv, khảo sát của SV Võ Huỳnh Bảo Hiền) + Dijkstra trên mạng lưới đường thực (graph.json)"}, "geometry": {"type": "LineString", "coordinates": [[106.671689, 10.972457], [106.672584, 10.971988], [106.67283, 10.97186], [106.673482, 10.971554], [106.673858, 10.97135], [106.67444, 10.971105], [106.675503, 10.970582], [106.677674, 10.969337], [106.677842, 10.969233], [106.677818, 10.96913], [106.677812, 10.969121], [106.6777, 10.968896], [106.67764, 10.968748], [106.677543, 10.968565], [106.677325, 10.968136], [106.677264, 10.968015], [106.677164, 10.967815], [106.676976, 10.967598], [106.67682, 10.967453], [106.676525, 10.967251], [106.676147, 10.967055], [106.675534, 10.966755], [106.675033, 10.9665], [106.674712, 10.966321], [106.67464, 10.96625], [106.674481, 10.966094], [106.674271, 10.965888], [106.67414, 10.965768], [106.67407, 10.965703], [106.67391, 10.965566], [106.673839, 10.9655], [106.67365, 10.965323], [106.673568, 10.965249], [106.673523, 10.965221], [106.673159, 10.964956], [106.672917, 10.964733], [106.672673, 10.964514], [106.672648, 10.964491], [106.672357, 10.964192], [106.672159, 10.963985], [106.671997, 10.963783], [106.671812, 10.963552], [106.671997, 10.963783], [106.672159, 10.963985], [106.672357, 10.964192], [106.672648, 10.964491], [106.672673, 10.964514], [106.672917, 10.964733], [106.673159, 10.964956], [106.673523, 10.965221], [106.673568, 10.965249], [106.67365, 10.965323], [106.673839, 10.9655], [106.67391, 10.965566], [106.67407, 10.965703], [106.67414, 10.965768], [106.674271, 10.965888], [106.674481, 10.966094], [106.67464, 10.96625], [106.674712, 10.966321], [106.675033, 10.9665], [106.675534, 10.966755], [106.675602, 10.966646], [106.675965, 10.96575], [106.676164, 10.965259], [106.676524, 10.964368], [106.677127, 10.96288], [106.676524, 10.964368], [106.676164, 10.965259], [106.675965, 10.96575], [106.675602, 10.966646], [106.675534, 10.966755], [106.674884, 10.967225], [106.674823, 10.96727], [106.67407, 10.967788], [106.673152, 10.968133], [106.672838, 10.96825], [106.672799, 10.968269], [106.672623, 10.968353], [106.672367, 10.968431], [106.671418, 10.968752], [106.671385, 10.968763], [106.670542, 10.969055], [106.670114, 10.969201], [106.670191, 10.969394], [106.670337, 10.969749], [106.670426, 10.969966], [106.670671, 10.970601], [106.670887, 10.971167], [106.671133, 10.971741], [106.671382, 10.972368], [106.671463, 10.972572], [106.671524, 10.972544], [106.671689, 10.972457], [106.672584, 10.971988], [106.67283, 10.97186], [106.673482, 10.971554], [106.673858, 10.97135], [106.67444, 10.971105], [106.675503, 10.970582], [106.677674, 10.969337], [106.677842, 10.969233], [106.677818, 10.96913], [106.677842, 10.969233], [106.678618, 10.968802], [106.67945, 10.968334], [106.680806, 10.967583], [106.681562, 10.967164], [106.682543, 10.966693], [106.682915, 10.966514], [106.683159, 10.9664], [106.683277, 10.966335], [106.685421, 10.965315], [106.68636, 10.96487], [106.686785, 10.964679], [106.688262, 10.963996], [106.688768, 10.963758], [106.688966, 10.963668]]}}]}